{"0000":{"zip_code":"0230000","prefecture":"岩手県","prefecture_kana":"イワテケン","city":"奥州市","city_kana":"オウシュウシ","town":"以下に掲載がない場合","town_kana":"イカニケイサイガナイバアイ","prefecture_code":3},"0402":{"zip_code":"0230402","prefecture":"岩手県","prefecture_kana":"イワテケン","city":"奥州市","city_kana":"オウシュウシ","town":"胆沢小山","town_kana":"イサワオヤマ","prefecture_code":3},"0401":{"zip_code":"0230401","prefecture":"岩手県","prefecture_kana":"イワテケン","city":"奥州市","city_kana":"オウシュウシ","town":"胆沢南都田","town_kana":"イサワナツタ","prefecture_code":3},"0403":{"zip_code":"0230403","prefecture":"岩手県","prefecture_kana":"イワテケン","city":"奥州市","city_kana":"オウシュウシ","town":"胆沢若柳","town_kana":"イサワワカヤナギ","prefecture_code":3},"1761":{"zip_code":"0231761","prefecture":"岩手県","prefecture_kana":"イワテケン","city":"奥州市","city_kana":"オウシュウシ","town":"江刺伊手","town_kana":"エサシイデ","prefecture_code":3},"1132":{"zip_code":"0231132","prefecture":"岩手県","prefecture_kana":"イワテケン","city":"奥州市","city_kana":"オウシュウシ","town":"江刺稲瀬","town_kana":"エサシイナセ","prefecture_code":3},"1101":{"zip_code":"0231101","prefecture":"岩手県","prefecture_kana":"イワテケン","city":"奥州市","city_kana":"オウシュウシ","town":"江刺岩谷堂","town_kana":"エサシイワヤドウ","prefecture_code":3},"1111":{"zip_code":"0231111","prefecture":"岩手県","prefecture_kana":"イワテケン","city":"奥州市","city_kana":"オウシュウシ","town":"江刺大通り","town_kana":"エサシオオドオリ","prefecture_code":3},"1131":{"zip_code":"0231131","prefecture":"岩手県","prefecture_kana":"イワテケン","city":"奥州市","city_kana":"オウシュウシ","town":"江刺愛宕","town_kana":"エサシオダキ","prefecture_code":3},"1121":{"zip_code":"0231121","prefecture":"岩手県","prefecture_kana":"イワテケン","city":"奥州市","city_kana":"オウシュウシ","town":"江刺男石","town_kana":"エサシオトコイシ","prefecture_code":3},"1114":{"zip_code":"0231114","prefecture":"岩手県","prefecture_kana":"イワテケン","city":"奥州市","city_kana":"オウシュウシ","town":"江刺川原町","town_kana":"エサシカワラマチ","prefecture_code":3},"1118":{"zip_code":"0231118","prefecture":"岩手県","prefecture_kana":"イワテケン","city":"奥州市","city_kana":"オウシュウシ","town":"江刺栄町","town_kana":"エサシサカエチョウ","prefecture_code":3},"1105":{"zip_code":"0231105","prefecture":"岩手県","prefecture_kana":"イワテケン","city":"奥州市","city_kana":"オウシュウシ","town":"江刺杉ノ町","town_kana":"エサシスギノマチ","prefecture_code":3},"1125":{"zip_code":"0231125","prefecture":"岩手県","prefecture_kana":"イワテケン","city":"奥州市","city_kana":"オウシュウシ","town":"江刺銭町","town_kana":"エサシゼニマチ","prefecture_code":3},"1122":{"zip_code":"0231122","prefecture":"岩手県","prefecture_kana":"イワテケン","city":"奥州市","city_kana":"オウシュウシ","town":"江刺館山","town_kana":"エサシタテヤマ","prefecture_code":3},"1134":{"zip_code":"0231134","prefecture":"岩手県","prefecture_kana":"イワテケン","city":"奥州市","city_kana":"オウシュウシ","town":"江刺玉里","town_kana":"エサシタマサト","prefecture_code":3},"0171":{"zip_code":"0230171","prefecture":"岩手県","prefecture_kana":"イワテケン","city":"奥州市","city_kana":"オウシュウシ","town":"江刺田原","town_kana":"エサシタワラ","prefecture_code":3},"1116":{"zip_code":"0231116","prefecture":"岩手県","prefecture_kana":"イワテケン","city":"奥州市","city_kana":"オウシュウシ","town":"江刺重染寺","town_kana":"エサシチョウゼンジ","prefecture_code":3},"1104":{"zip_code":"0231104","prefecture":"岩手県","prefecture_kana":"イワテケン","city":"奥州市","city_kana":"オウシュウシ","town":"江刺豊田町","town_kana":"エサシトヨタチョウ","prefecture_code":3},"1113":{"zip_code":"0231113","prefecture":"岩手県","prefecture_kana":"イワテケン","city":"奥州市","city_kana":"オウシュウシ","town":"江刺中町","town_kana":"エサシナカマチ","prefecture_code":3},"1103":{"zip_code":"0231103","prefecture":"岩手県","prefecture_kana":"イワテケン","city":"奥州市","city_kana":"オウシュウシ","town":"江刺西大通り","town_kana":"エサシニシオオドオリ","prefecture_code":3},"1133":{"zip_code":"0231133","prefecture":"岩手県","prefecture_kana":"イワテケン","city":"奥州市","city_kana":"オウシュウシ","town":"江刺広瀬","town_kana":"エサシヒロセ","prefecture_code":3},"1762":{"zip_code":"0231762","prefecture":"岩手県","prefecture_kana":"イワテケン","city":"奥州市","city_kana":"オウシュウシ","town":"江刺藤里","town_kana":"エサシフジサト","prefecture_code":3},"1115":{"zip_code":"0231115","prefecture":"岩手県","prefecture_kana":"イワテケン","city":"奥州市","city_kana":"オウシュウシ","town":"江刺本町","town_kana":"エサシホンチョウ","prefecture_code":3},"1123":{"zip_code":"0231123","prefecture":"岩手県","prefecture_kana":"イワテケン","city":"奥州市","city_kana":"オウシュウシ","town":"江刺前田町","town_kana":"エサシマエダチョウ","prefecture_code":3},"1112":{"zip_code":"0231112","prefecture":"岩手県","prefecture_kana":"イワテケン","city":"奥州市","city_kana":"オウシュウシ","town":"江刺南大通り","town_kana":"エサシミナミオオドオリ","prefecture_code":3},"1117":{"zip_code":"0231117","prefecture":"岩手県","prefecture_kana":"イワテケン","city":"奥州市","city_kana":"オウシュウシ","town":"江刺南町","town_kana":"エサシミナミマチ","prefecture_code":3},"1124":{"zip_code":"0231124","prefecture":"岩手県","prefecture_kana":"イワテケン","city":"奥州市","city_kana":"オウシュウシ","town":"江刺六日町","town_kana":"エサシムイカマチ","prefecture_code":3},"1341":{"zip_code":"0231341","prefecture":"岩手県","prefecture_kana":"イワテケン","city":"奥州市","city_kana":"オウシュウシ","town":"江刺梁川","town_kana":"エサシヤナガワ","prefecture_code":3},"1102":{"zip_code":"0231102","prefecture":"岩手県","prefecture_kana":"イワテケン","city":"奥州市","city_kana":"オウシュウシ","town":"江刺八日町","town_kana":"エサシヨウカマチ","prefecture_code":3},"1551":{"zip_code":"0231551","prefecture":"岩手県","prefecture_kana":"イワテケン","city":"奥州市","city_kana":"オウシュウシ","town":"江刺米里","town_kana":"エサシヨネサト","prefecture_code":3},"0035":{"zip_code":"0230035","prefecture":"岩手県","prefecture_kana":"イワテケン","city":"奥州市","city_kana":"オウシュウシ","town":"水沢赤土田","town_kana":"ミズサワアカツチダ","prefecture_code":3},"0041":{"zip_code":"0230041","prefecture":"岩手県","prefecture_kana":"イワテケン","city":"奥州市","city_kana":"オウシュウシ","town":"水沢秋葉町","town_kana":"ミズサワアキバチョウ","prefecture_code":3},"0823":{"zip_code":"0230823","prefecture":"岩手県","prefecture_kana":"イワテケン","city":"奥州市","city_kana":"オウシュウシ","town":"水沢朝日町","town_kana":"ミズサワアサヒチョウ","prefecture_code":3},"0818":{"zip_code":"0230818","prefecture":"岩手県","prefecture_kana":"イワテケン","city":"奥州市","city_kana":"オウシュウシ","town":"水沢東町","town_kana":"ミズサワアズマチョウ","prefecture_code":3},"0831":{"zip_code":"0230831","prefecture":"岩手県","prefecture_kana":"イワテケン","city":"奥州市","city_kana":"オウシュウシ","town":"水沢姉体町","town_kana":"ミズサワアネタイチョウ","prefecture_code":3},"0824":{"zip_code":"0230824","prefecture":"岩手県","prefecture_kana":"イワテケン","city":"奥州市","city_kana":"オウシュウシ","town":"水沢泉町","town_kana":"ミズサワイズミチョウ","prefecture_code":3},"0013":{"zip_code":"0230013","prefecture":"岩手県","prefecture_kana":"イワテケン","city":"奥州市","city_kana":"オウシュウシ","town":"水沢一本柳","town_kana":"ミズサワイッポンヤナギ","prefecture_code":3},"0011":{"zip_code":"0230011","prefecture":"岩手県","prefecture_kana":"イワテケン","city":"奥州市","city_kana":"オウシュウシ","town":"水沢稲荷田","town_kana":"ミズサワイナリダ","prefecture_code":3},"0898":{"zip_code":"0230898","prefecture":"岩手県","prefecture_kana":"イワテケン","city":"奥州市","city_kana":"オウシュウシ","town":"水沢後田","town_kana":"ミズサワウシロダ","prefecture_code":3},"0057":{"zip_code":"0230057","prefecture":"岩手県","prefecture_kana":"イワテケン","city":"奥州市","city_kana":"オウシュウシ","town":"水沢上町","town_kana":"ミズサワウワマチ","prefecture_code":3},"0854":{"zip_code":"0230854","prefecture":"岩手県","prefecture_kana":"イワテケン","city":"奥州市","city_kana":"オウシュウシ","town":"水沢大鐘町","town_kana":"ミズサワオオガネチョウ","prefecture_code":3},"0084":{"zip_code":"0230084","prefecture":"岩手県","prefecture_kana":"イワテケン","city":"奥州市","city_kana":"オウシュウシ","town":"水沢大上","town_kana":"ミズサワオオガミ","prefecture_code":3},"0053":{"zip_code":"0230053","prefecture":"岩手県","prefecture_kana":"イワテケン","city":"奥州市","city_kana":"オウシュウシ","town":"水沢大手町","town_kana":"ミズサワオオテマチ","prefecture_code":3},"0867":{"zip_code":"0230867","prefecture":"岩手県","prefecture_kana":"イワテケン","city":"奥州市","city_kana":"オウシュウシ","town":"水沢大橋","town_kana":"ミズサワオオハシ","prefecture_code":3},"0802":{"zip_code":"0230802","prefecture":"岩手県","prefecture_kana":"イワテケン","city":"奥州市","city_kana":"オウシュウシ","town":"水沢大畑小路","town_kana":"ミズサワオオバタケコウジ","prefecture_code":3},"0045":{"zip_code":"0230045","prefecture":"岩手県","prefecture_kana":"イワテケン","city":"奥州市","city_kana":"オウシュウシ","town":"水沢大町","town_kana":"ミズサワオオマチ","prefecture_code":3},"0085":{"zip_code":"0230085","prefecture":"岩手県","prefecture_kana":"イワテケン","city":"奥州市","city_kana":"オウシュウシ","town":"水沢踊子","town_kana":"ミズサワオドリコ","prefecture_code":3},"0001":{"zip_code":"0230001","prefecture":"岩手県","prefecture_kana":"イワテケン","city":"奥州市","city_kana":"オウシュウシ","town":"水沢卸町","town_kana":"ミズサワオロシマチ","prefecture_code":3},"0021":{"zip_code":"0230021","prefecture":"岩手県","prefecture_kana":"イワテケン","city":"奥州市","city_kana":"オウシュウシ","town":"水沢欠ノ下","town_kana":"ミズサワカケノシタ","prefecture_code":3},"0051":{"zip_code":"0230051","prefecture":"岩手県","prefecture_kana":"イワテケン","city":"奥州市","city_kana":"オウシュウシ","town":"水沢勝手町","town_kana":"ミズサワカッテチョウ","prefecture_code":3},"0892":{"zip_code":"0230892","prefecture":"岩手県","prefecture_kana":"イワテケン","city":"奥州市","city_kana":"オウシュウシ","town":"水沢釜田","town_kana":"ミズサワカマタ","prefecture_code":3},"0833":{"zip_code":"0230833","prefecture":"岩手県","prefecture_kana":"イワテケン","city":"奥州市","city_kana":"オウシュウシ","town":"水沢上姉体","town_kana":"ミズサワカミアネタイ","prefecture_code":3},"0052":{"zip_code":"0230052","prefecture":"岩手県","prefecture_kana":"イワテケン","city":"奥州市","city_kana":"オウシュウシ","town":"水沢搦手丁","town_kana":"ミズサワカラメテチョウ","prefecture_code":3},"0034":{"zip_code":"0230034","prefecture":"岩手県","prefecture_kana":"イワテケン","city":"奥州市","city_kana":"オウシュウシ","town":"水沢川口町","town_kana":"ミズサワカワグチマチ","prefecture_code":3},"0863":{"zip_code":"0230863","prefecture":"岩手県","prefecture_kana":"イワテケン","city":"奥州市","city_kana":"オウシュウシ","town":"水沢川端","town_kana":"ミズサワカワバタ","prefecture_code":3},"0046":{"zip_code":"0230046","prefecture":"岩手県","prefecture_kana":"イワテケン","city":"奥州市","city_kana":"オウシュウシ","town":"水沢川原小路","town_kana":"ミズサワカワラコウジ","prefecture_code":3},"0031":{"zip_code":"0230031","prefecture":"岩手県","prefecture_kana":"イワテケン","city":"奥州市","city_kana":"オウシュウシ","town":"水沢北丑沢","town_kana":"ミズサワキタウシザワ","prefecture_code":3},"0036":{"zip_code":"0230036","prefecture":"岩手県","prefecture_kana":"イワテケン","city":"奥州市","city_kana":"オウシュウシ","town":"水沢北栗林","town_kana":"ミズサワキタクリバヤシ","prefecture_code":3},"0881":{"zip_code":"0230881","prefecture":"岩手県","prefecture_kana":"イワテケン","city":"奥州市","city_kana":"オウシュウシ","town":"水沢北田","town_kana":"ミズサワキタダ","prefecture_code":3},"0092":{"zip_code":"0230092","prefecture":"岩手県","prefecture_kana":"イワテケン","city":"奥州市","city_kana":"オウシュウシ","town":"水沢北半郷","town_kana":"ミズサワキタハンゴウ","prefecture_code":3},"0054":{"zip_code":"0230054","prefecture":"岩手県","prefecture_kana":"イワテケン","city":"奥州市","city_kana":"オウシュウシ","town":"水沢吉小路","town_kana":"ミズサワキチコウジ","prefecture_code":3},"0056":{"zip_code":"0230056","prefecture":"岩手県","prefecture_kana":"イワテケン","city":"奥州市","city_kana":"オウシュウシ","town":"水沢久田","town_kana":"ミズサワキュウデン","prefecture_code":3},"0101":{"zip_code":"0230101","prefecture":"岩手県","prefecture_kana":"イワテケン","city":"奥州市","city_kana":"オウシュウシ","town":"水沢黒石町","town_kana":"ミズサワクロイシチョウ","prefecture_code":3},"0071":{"zip_code":"0230071","prefecture":"岩手県","prefecture_kana":"イワテケン","city":"奥州市","city_kana":"オウシュウシ","town":"水沢黒子","town_kana":"ミズサワクロコ","prefecture_code":3},"0077":{"zip_code":"0230077","prefecture":"岩手県","prefecture_kana":"イワテケン","city":"奥州市","city_kana":"オウシュウシ","town":"水沢桑畑","town_kana":"ミズサワクワバタ","prefecture_code":3},"0062":{"zip_code":"0230062","prefecture":"岩手県","prefecture_kana":"イワテケン","city":"奥州市","city_kana":"オウシュウシ","town":"水沢小石田","town_kana":"ミズサワコイシダ","prefecture_code":3},"0025":{"zip_code":"0230025","prefecture":"岩手県","prefecture_kana":"イワテケン","city":"奥州市","city_kana":"オウシュウシ","town":"水沢高網","town_kana":"ミズサワコウアミ","prefecture_code":3},"0002":{"zip_code":"0230002","prefecture":"岩手県","prefecture_kana":"イワテケン","city":"奥州市","city_kana":"オウシュウシ","town":"水沢工業団地","town_kana":"ミズサワコウギョウダンチ","prefecture_code":3},"0087":{"zip_code":"0230087","prefecture":"岩手県","prefecture_kana":"イワテケン","city":"奥州市","city_kana":"オウシュウシ","town":"水沢高谷宿","town_kana":"ミズサワコウヤシュク","prefecture_code":3},"0055":{"zip_code":"0230055","prefecture":"岩手県","prefecture_kana":"イワテケン","city":"奥州市","city_kana":"オウシュウシ","town":"水沢虚空蔵小路","town_kana":"ミズサワコクゾウコウジ","prefecture_code":3},"0074":{"zip_code":"0230074","prefecture":"岩手県","prefecture_kana":"イワテケン","city":"奥州市","city_kana":"オウシュウシ","town":"水沢極楽","town_kana":"ミズサワゴクラク","prefecture_code":3},"0015":{"zip_code":"0230015","prefecture":"岩手県","prefecture_kana":"イワテケン","city":"奥州市","city_kana":"オウシュウシ","town":"水沢五千刈","town_kana":"ミズサワゴセンガリ","prefecture_code":3},"0018":{"zip_code":"0230018","prefecture":"岩手県","prefecture_kana":"イワテケン","city":"奥州市","city_kana":"オウシュウシ","town":"水沢小中","town_kana":"ミズサワコナカ","prefecture_code":3},"0094":{"zip_code":"0230094","prefecture":"岩手県","prefecture_kana":"イワテケン","city":"奥州市","city_kana":"オウシュウシ","town":"水沢五輪","town_kana":"ミズサワゴリン","prefecture_code":3},"0012":{"zip_code":"0230012","prefecture":"岩手県","prefecture_kana":"イワテケン","city":"奥州市","city_kana":"オウシュウシ","town":"水沢斉勝田","town_kana":"ミズサワサイカツダ","prefecture_code":3},"0805":{"zip_code":"0230805","prefecture":"岩手県","prefecture_kana":"イワテケン","city":"奥州市","city_kana":"オウシュウシ","town":"水沢斉の神","town_kana":"ミズサワサイノカミ","prefecture_code":3},"0897":{"zip_code":"0230897","prefecture":"岩手県","prefecture_kana":"イワテケン","city":"奥州市","city_kana":"オウシュウシ","town":"水沢桜川","town_kana":"ミズサワサクラカワ","prefecture_code":3},"0003":{"zip_code":"0230003","prefecture":"岩手県","prefecture_kana":"イワテケン","city":"奥州市","city_kana":"オウシュウシ","town":"水沢佐倉河","town_kana":"ミズサワサクラカワ","prefecture_code":3},"0865":{"zip_code":"0230865","prefecture":"岩手県","prefecture_kana":"イワテケン","city":"奥州市","city_kana":"オウシュウシ","town":"水沢桜屋敷","town_kana":"ミズサワサクラヤシキ","prefecture_code":3},"0872":{"zip_code":"0230872","prefecture":"岩手県","prefecture_kana":"イワテケン","city":"奥州市","city_kana":"オウシュウシ","town":"水沢桜屋敷西","town_kana":"ミズサワサクラヤシキニシ","prefecture_code":3},"0873":{"zip_code":"0230873","prefecture":"岩手県","prefecture_kana":"イワテケン","city":"奥州市","city_kana":"オウシュウシ","town":"水沢笹森谷地","town_kana":"ミズサワササモリヤチ","prefecture_code":3},"0026":{"zip_code":"0230026","prefecture":"岩手県","prefecture_kana":"イワテケン","city":"奥州市","city_kana":"オウシュウシ","town":"水沢里鎗","town_kana":"ミズサワサトヤリ","prefecture_code":3},"0044":{"zip_code":"0230044","prefecture":"岩手県","prefecture_kana":"イワテケン","city":"奥州市","city_kana":"オウシュウシ","town":"水沢三本木","town_kana":"ミズサワサンボンギ","prefecture_code":3},"0014":{"zip_code":"0230014","prefecture":"岩手県","prefecture_kana":"イワテケン","city":"奥州市","city_kana":"オウシュウシ","town":"水沢地蔵田","town_kana":"ミズサワジゾウデン","prefecture_code":3},"0017":{"zip_code":"0230017","prefecture":"岩手県","prefecture_kana":"イワテケン","city":"奥州市","city_kana":"オウシュウシ","town":"水沢渋田","town_kana":"ミズサワシブタ","prefecture_code":3},"0063":{"zip_code":"0230063","prefecture":"岩手県","prefecture_kana":"イワテケン","city":"奥州市","city_kana":"オウシュウシ","town":"水沢聖天","town_kana":"ミズサワショウテン","prefecture_code":3},"0073":{"zip_code":"0230073","prefecture":"岩手県","prefecture_kana":"イワテケン","city":"奥州市","city_kana":"オウシュウシ","town":"水沢寺領","town_kana":"ミズサワジリョウ","prefecture_code":3},"0807":{"zip_code":"0230807","prefecture":"岩手県","prefecture_kana":"イワテケン","city":"奥州市","city_kana":"オウシュウシ","town":"水沢新小路","town_kana":"ミズサワシンコウジ","prefecture_code":3},"0841":{"zip_code":"0230841","prefecture":"岩手県","prefecture_kana":"イワテケン","city":"奥州市","city_kana":"オウシュウシ","town":"水沢真城","town_kana":"ミズサワシンジョウ","prefecture_code":3},"0842":{"zip_code":"0230842","prefecture":"岩手県","prefecture_kana":"イワテケン","city":"奥州市","city_kana":"オウシュウシ","town":"水沢真城が丘","town_kana":"ミズサワシンジョウガオカ","prefecture_code":3},"0821":{"zip_code":"0230821","prefecture":"岩手県","prefecture_kana":"イワテケン","city":"奥州市","city_kana":"オウシュウシ","town":"水沢神明町","town_kana":"ミズサワシンメイチョウ","prefecture_code":3},"0095":{"zip_code":"0230095","prefecture":"岩手県","prefecture_kana":"イワテケン","city":"奥州市","city_kana":"オウシュウシ","town":"水沢雀田","town_kana":"ミズサワスズメダ","prefecture_code":3},"0866":{"zip_code":"0230866","prefecture":"岩手県","prefecture_kana":"イワテケン","city":"奥州市","city_kana":"オウシュウシ","town":"水沢堰合","town_kana":"ミズサワセキアイ","prefecture_code":3},"0083":{"zip_code":"0230083","prefecture":"岩手県","prefecture_kana":"イワテケン","city":"奥州市","city_kana":"オウシュウシ","town":"水沢前郷","town_kana":"ミズサワゼンゴウ","prefecture_code":3},"0877":{"zip_code":"0230877","prefecture":"岩手県","prefecture_kana":"イワテケン","city":"奥州市","city_kana":"オウシュウシ","town":"水沢袖谷地","town_kana":"ミズサワソデヤチ","prefecture_code":3},"0871":{"zip_code":"0230871","prefecture":"岩手県","prefecture_kana":"イワテケン","city":"奥州市","city_kana":"オウシュウシ","town":"水沢外谷地","town_kana":"ミズサワソトヤチ","prefecture_code":3},"0081":{"zip_code":"0230081","prefecture":"岩手県","prefecture_kana":"イワテケン","city":"奥州市","city_kana":"オウシュウシ","town":"水沢橇町","town_kana":"ミズサワソリマチ","prefecture_code":3},"0827":{"zip_code":"0230827","prefecture":"岩手県","prefecture_kana":"イワテケン","city":"奥州市","city_kana":"オウシュウシ","town":"水沢太日通り","town_kana":"ミズサワタイニチドオリ","prefecture_code":3},"0825":{"zip_code":"0230825","prefecture":"岩手県","prefecture_kana":"イワテケン","city":"奥州市","city_kana":"オウシュウシ","town":"水沢台町","town_kana":"ミズサワダイマチ","prefecture_code":3},"0894":{"zip_code":"0230894","prefecture":"岩手県","prefecture_kana":"イワテケン","city":"奥州市","city_kana":"オウシュウシ","town":"水沢大明神","town_kana":"ミズサワダイミョウジン","prefecture_code":3},"0032":{"zip_code":"0230032","prefecture":"岩手県","prefecture_kana":"イワテケン","city":"奥州市","city_kana":"オウシュウシ","town":"水沢多賀","town_kana":"ミズサワタガ","prefecture_code":3},"0889":{"zip_code":"0230889","prefecture":"岩手県","prefecture_kana":"イワテケン","city":"奥州市","city_kana":"オウシュウシ","town":"水沢高屋敷","town_kana":"ミズサワタカヤシキ","prefecture_code":3},"0091":{"zip_code":"0230091","prefecture":"岩手県","prefecture_kana":"イワテケン","city":"奥州市","city_kana":"オウシュウシ","town":"水沢高山","town_kana":"ミズサワタカヤマ","prefecture_code":3},"0891":{"zip_code":"0230891","prefecture":"岩手県","prefecture_kana":"イワテケン","city":"奥州市","city_kana":"オウシュウシ","town":"水沢内匠田","town_kana":"ミズサワタクミダ","prefecture_code":3},"0803":{"zip_code":"0230803","prefecture":"岩手県","prefecture_kana":"イワテケン","city":"奥州市","city_kana":"オウシュウシ","town":"水沢田小路","town_kana":"ミズサワタコウジ","prefecture_code":3},"0047":{"zip_code":"0230047","prefecture":"岩手県","prefecture_kana":"イワテケン","city":"奥州市","city_kana":"オウシュウシ","town":"水沢立町","town_kana":"ミズサワタチマチ","prefecture_code":3},"0895":{"zip_code":"0230895","prefecture":"岩手県","prefecture_kana":"イワテケン","city":"奥州市","city_kana":"オウシュウシ","town":"水沢足袋針","town_kana":"ミズサワタビハリ","prefecture_code":3},"0019":{"zip_code":"0230019","prefecture":"岩手県","prefecture_kana":"イワテケン","city":"奥州市","city_kana":"オウシュウシ","town":"水沢築舘","town_kana":"ミズサワツキダテ","prefecture_code":3},"0076":{"zip_code":"0230076","prefecture":"岩手県","prefecture_kana":"イワテケン","city":"奥州市","city_kana":"オウシュウシ","town":"水沢造道","town_kana":"ミズサワツクリミチ","prefecture_code":3},"0876":{"zip_code":"0230876","prefecture":"岩手県","prefecture_kana":"イワテケン","city":"奥州市","city_kana":"オウシュウシ","town":"水沢鶴淵","town_kana":"ミズサワツルブチ","prefecture_code":3},"0811":{"zip_code":"0230811","prefecture":"岩手県","prefecture_kana":"イワテケン","city":"奥州市","city_kana":"オウシュウシ","town":"水沢寺小路","town_kana":"ミズサワテラコウジ","prefecture_code":3},"0812":{"zip_code":"0230812","prefecture":"岩手県","prefecture_kana":"イワテケン","city":"奥州市","city_kana":"オウシュウシ","town":"水沢寺脇","town_kana":"ミズサワテラワキ","prefecture_code":3},"0815":{"zip_code":"0230815","prefecture":"岩手県","prefecture_kana":"イワテケン","city":"奥州市","city_kana":"オウシュウシ","town":"水沢天文台通り","town_kana":"ミズサワテンモンダイドオリ","prefecture_code":3},"0064":{"zip_code":"0230064","prefecture":"岩手県","prefecture_kana":"イワテケン","city":"奥州市","city_kana":"オウシュウシ","town":"水沢土器田","town_kana":"ミズサワドキタ","prefecture_code":3},"0857":{"zip_code":"0230857","prefecture":"岩手県","prefecture_kana":"イワテケン","city":"奥州市","city_kana":"オウシュウシ","town":"水沢中上野町","town_kana":"ミズサワナカウワノチョウ","prefecture_code":3},"0022":{"zip_code":"0230022","prefecture":"岩手県","prefecture_kana":"イワテケン","city":"奥州市","city_kana":"オウシュウシ","town":"水沢中城","town_kana":"ミズサワナカシロ","prefecture_code":3},"0826":{"zip_code":"0230826","prefecture":"岩手県","prefecture_kana":"イワテケン","city":"奥州市","city_kana":"オウシュウシ","town":"水沢中田町","town_kana":"ミズサワナカダチョウ","prefecture_code":3},"0813":{"zip_code":"0230813","prefecture":"岩手県","prefecture_kana":"イワテケン","city":"奥州市","city_kana":"オウシュウシ","town":"水沢中町","town_kana":"ミズサワナカマチ","prefecture_code":3},"0061":{"zip_code":"0230061","prefecture":"岩手県","prefecture_kana":"イワテケン","city":"奥州市","city_kana":"オウシュウシ","town":"水沢長町","town_kana":"ミズサワナガマチ","prefecture_code":3},"0024":{"zip_code":"0230024","prefecture":"岩手県","prefecture_kana":"イワテケン","city":"奥州市","city_kana":"オウシュウシ","town":"水沢名残","town_kana":"ミズサワナゴリ","prefecture_code":3},"0856":{"zip_code":"0230856","prefecture":"岩手県","prefecture_kana":"イワテケン","city":"奥州市","city_kana":"オウシュウシ","town":"水沢西上野町","town_kana":"ミズサワニシウワノチョウ","prefecture_code":3},"0896":{"zip_code":"0230896","prefecture":"岩手県","prefecture_kana":"イワテケン","city":"奥州市","city_kana":"オウシュウシ","town":"水沢西光田","town_kana":"ミズサワニシコウデン","prefecture_code":3},"0885":{"zip_code":"0230885","prefecture":"岩手県","prefecture_kana":"イワテケン","city":"奥州市","city_kana":"オウシュウシ","town":"水沢西田","town_kana":"ミズサワニシダ","prefecture_code":3},"0816":{"zip_code":"0230816","prefecture":"岩手県","prefecture_kana":"イワテケン","city":"奥州市","city_kana":"オウシュウシ","town":"水沢西町","town_kana":"ミズサワニシマチ","prefecture_code":3},"0067":{"zip_code":"0230067","prefecture":"岩手県","prefecture_kana":"イワテケン","city":"奥州市","city_kana":"オウシュウシ","town":"水沢二反田","town_kana":"ミズサワニタンダ","prefecture_code":3},"0102":{"zip_code":"0230102","prefecture":"岩手県","prefecture_kana":"イワテケン","city":"奥州市","city_kana":"オウシュウシ","town":"水沢羽田町駅東","town_kana":"ミズサワハダチョウエキヒガシ","prefecture_code":3},"0104":{"zip_code":"0230104","prefecture":"岩手県","prefecture_kana":"イワテケン","city":"奥州市","city_kana":"オウシュウシ","town":"水沢羽田町駅前","town_kana":"ミズサワハダチョウエキマエ","prefecture_code":3},"0103":{"zip_code":"0230103","prefecture":"岩手県","prefecture_kana":"イワテケン","city":"奥州市","city_kana":"オウシュウシ","town":"水沢羽田町駅南","town_kana":"ミズサワハダチョウエキミナミ","prefecture_code":3},"0106":{"zip_code":"0230106","prefecture":"岩手県","prefecture_kana":"イワテケン","city":"奥州市","city_kana":"オウシュウシ","town":"水沢羽田町久保","town_kana":"ミズサワハダチョウクボ","prefecture_code":3},"0105":{"zip_code":"0230105","prefecture":"岩手県","prefecture_kana":"イワテケン","city":"奥州市","city_kana":"オウシュウシ","town":"水沢羽田町宝生","town_kana":"ミズサワハダチョウホウショウ","prefecture_code":3},"0107":{"zip_code":"0230107","prefecture":"岩手県","prefecture_kana":"イワテケン","city":"奥州市","city_kana":"オウシュウシ","town":"水沢羽田町宝柳木","town_kana":"ミズサワハダチョウホウリュウギ","prefecture_code":3},"0108":{"zip_code":"0230108","prefecture":"岩手県","prefecture_kana":"イワテケン","city":"奥州市","city_kana":"オウシュウシ","town":"水沢羽田町向畑","town_kana":"ミズサワハダチョウムカイハタ","prefecture_code":3},"0832":{"zip_code":"0230832","prefecture":"岩手県","prefecture_kana":"イワテケン","city":"奥州市","city_kana":"オウシュウシ","town":"水沢羽田町（草井沼、下沼、谷木、元谷木）","town_kana":"ミズサワハダチョウ(クサイヌマ、シモヌマ、ヤギ、モトヤギ)","prefecture_code":3},"0132":{"zip_code":"0230132","prefecture":"岩手県","prefecture_kana":"イワテケン","city":"奥州市","city_kana":"オウシュウシ","town":"水沢羽田町（その他）","town_kana":"ミズサワハダチョウ(ソノタ)","prefecture_code":3},"0888":{"zip_code":"0230888","prefecture":"岩手県","prefecture_kana":"イワテケン","city":"奥州市","city_kana":"オウシュウシ","town":"水沢八反田","town_kana":"ミズサワハッタンダ","prefecture_code":3},"0023":{"zip_code":"0230023","prefecture":"岩手県","prefecture_kana":"イワテケン","city":"奥州市","city_kana":"オウシュウシ","town":"水沢八反町","town_kana":"ミズサワハッタンマチ","prefecture_code":3},"0829":{"zip_code":"0230829","prefecture":"岩手県","prefecture_kana":"イワテケン","city":"奥州市","city_kana":"オウシュウシ","town":"水沢花園町","town_kana":"ミズサワハナゾノチョウ","prefecture_code":3},"0027":{"zip_code":"0230027","prefecture":"岩手県","prefecture_kana":"イワテケン","city":"奥州市","city_kana":"オウシュウシ","town":"水沢幅下","town_kana":"ミズサワハバシタ","prefecture_code":3},"0853":{"zip_code":"0230853","prefecture":"岩手県","prefecture_kana":"イワテケン","city":"奥州市","city_kana":"オウシュウシ","town":"水沢東上野町","town_kana":"ミズサワヒガシウワノチョウ","prefecture_code":3},"0828":{"zip_code":"0230828","prefecture":"岩手県","prefecture_kana":"イワテケン","city":"奥州市","city_kana":"オウシュウシ","town":"水沢東大通り","town_kana":"ミズサワヒガシオオドオリ","prefecture_code":3},"0822":{"zip_code":"0230822","prefecture":"岩手県","prefecture_kana":"イワテケン","city":"奥州市","city_kana":"オウシュウシ","town":"水沢東中通り","town_kana":"ミズサワヒガシナカドオリ","prefecture_code":3},"0082":{"zip_code":"0230082","prefecture":"岩手県","prefecture_kana":"イワテケン","city":"奥州市","city_kana":"オウシュウシ","town":"水沢東半郷","town_kana":"ミズサワヒガシハンゴウ","prefecture_code":3},"0808":{"zip_code":"0230808","prefecture":"岩手県","prefecture_kana":"イワテケン","city":"奥州市","city_kana":"オウシュウシ","town":"水沢日高小路","town_kana":"ミズサワヒタカコウジ","prefecture_code":3},"0806":{"zip_code":"0230806","prefecture":"岩手県","prefecture_kana":"イワテケン","city":"奥州市","city_kana":"オウシュウシ","town":"水沢日高西","town_kana":"ミズサワヒタカニシ","prefecture_code":3},"0016":{"zip_code":"0230016","prefecture":"岩手県","prefecture_kana":"イワテケン","city":"奥州市","city_kana":"オウシュウシ","town":"水沢平沢","town_kana":"ミズサワヒラサワ","prefecture_code":3},"0072":{"zip_code":"0230072","prefecture":"岩手県","prefecture_kana":"イワテケン","city":"奥州市","city_kana":"オウシュウシ","town":"水沢樋渡","town_kana":"ミズサワヒワタシ","prefecture_code":3},"0862":{"zip_code":"0230862","prefecture":"岩手県","prefecture_kana":"イワテケン","city":"奥州市","city_kana":"オウシュウシ","town":"水沢福吉町","town_kana":"ミズサワフクヨシチョウ","prefecture_code":3},"0814":{"zip_code":"0230814","prefecture":"岩手県","prefecture_kana":"イワテケン","city":"奥州市","city_kana":"オウシュウシ","town":"水沢袋町","town_kana":"ミズサワフクロマチ","prefecture_code":3},"0882":{"zip_code":"0230882","prefecture":"岩手県","prefecture_kana":"イワテケン","city":"奥州市","city_kana":"オウシュウシ","town":"水沢福原","town_kana":"ミズサワフクワラ","prefecture_code":3},"0033":{"zip_code":"0230033","prefecture":"岩手県","prefecture_kana":"イワテケン","city":"奥州市","city_kana":"オウシュウシ","town":"水沢不断町","town_kana":"ミズサワフダンチョウ","prefecture_code":3},"0861":{"zip_code":"0230861","prefecture":"岩手県","prefecture_kana":"イワテケン","city":"奥州市","city_kana":"オウシュウシ","town":"水沢星ガ丘町","town_kana":"ミズサワホシガオカチョウ","prefecture_code":3},"0058":{"zip_code":"0230058","prefecture":"岩手県","prefecture_kana":"イワテケン","city":"奥州市","city_kana":"オウシュウシ","town":"水沢堀ノ内","town_kana":"ミズサワホリノウチ","prefecture_code":3},"0066":{"zip_code":"0230066","prefecture":"岩手県","prefecture_kana":"イワテケン","city":"奥州市","city_kana":"オウシュウシ","town":"水沢前田袋","town_kana":"ミズサワマエタブクロ","prefecture_code":3},"0884":{"zip_code":"0230884","prefecture":"岩手県","prefecture_kana":"イワテケン","city":"奥州市","city_kana":"オウシュウシ","town":"水沢前谷地","town_kana":"ミズサワマエヤチ","prefecture_code":3},"0883":{"zip_code":"0230883","prefecture":"岩手県","prefecture_kana":"イワテケン","city":"奥州市","city_kana":"オウシュウシ","town":"水沢町裏","town_kana":"ミズサワマチウラ","prefecture_code":3},"0093":{"zip_code":"0230093","prefecture":"岩手県","prefecture_kana":"イワテケン","city":"奥州市","city_kana":"オウシュウシ","town":"水沢水神","town_kana":"ミズサワミズガミ","prefecture_code":3},"0065":{"zip_code":"0230065","prefecture":"岩手県","prefecture_kana":"イワテケン","city":"奥州市","city_kana":"オウシュウシ","town":"水沢水山","town_kana":"ミズサワミズヤマ","prefecture_code":3},"0043":{"zip_code":"0230043","prefecture":"岩手県","prefecture_kana":"イワテケン","city":"奥州市","city_kana":"オウシュウシ","town":"水沢道合","town_kana":"ミズサワミチアイ","prefecture_code":3},"0037":{"zip_code":"0230037","prefecture":"岩手県","prefecture_kana":"イワテケン","city":"奥州市","city_kana":"オウシュウシ","town":"水沢南丑沢","town_kana":"ミズサワミナミウシザワ","prefecture_code":3},"0855":{"zip_code":"0230855","prefecture":"岩手県","prefecture_kana":"イワテケン","city":"奥州市","city_kana":"オウシュウシ","town":"水沢南大鐘","town_kana":"ミズサワミナミオオガネ","prefecture_code":3},"0851":{"zip_code":"0230851","prefecture":"岩手県","prefecture_kana":"イワテケン","city":"奥州市","city_kana":"オウシュウシ","town":"水沢南町","town_kana":"ミズサワミナミマチ","prefecture_code":3},"0886":{"zip_code":"0230886","prefecture":"岩手県","prefecture_kana":"イワテケン","city":"奥州市","city_kana":"オウシュウシ","town":"水沢南矢中","town_kana":"ミズサワミナミヤナカ","prefecture_code":3},"0075":{"zip_code":"0230075","prefecture":"岩手県","prefecture_kana":"イワテケン","city":"奥州市","city_kana":"オウシュウシ","town":"水沢水ノ口","town_kana":"ミズサワミノクチ","prefecture_code":3},"0817":{"zip_code":"0230817","prefecture":"岩手県","prefecture_kana":"イワテケン","city":"奥州市","city_kana":"オウシュウシ","town":"水沢宮下町","town_kana":"ミズサワミヤシタチョウ","prefecture_code":3},"0874":{"zip_code":"0230874","prefecture":"岩手県","prefecture_kana":"イワテケン","city":"奥州市","city_kana":"オウシュウシ","town":"水沢見分森","town_kana":"ミズサワミワケモリ","prefecture_code":3},"0096":{"zip_code":"0230096","prefecture":"岩手県","prefecture_kana":"イワテケン","city":"奥州市","city_kana":"オウシュウシ","town":"水沢向田","town_kana":"ミズサワムカイダ","prefecture_code":3},"0875":{"zip_code":"0230875","prefecture":"岩手県","prefecture_kana":"イワテケン","city":"奥州市","city_kana":"オウシュウシ","town":"水沢森下","town_kana":"ミズサワモリシタ","prefecture_code":3},"0086":{"zip_code":"0230086","prefecture":"岩手県","prefecture_kana":"イワテケン","city":"奥州市","city_kana":"オウシュウシ","town":"水沢谷地中","town_kana":"ミズサワヤチナカ","prefecture_code":3},"0804":{"zip_code":"0230804","prefecture":"岩手県","prefecture_kana":"イワテケン","city":"奥州市","city_kana":"オウシュウシ","town":"水沢谷地明円","town_kana":"ミズサワヤチミョウエン","prefecture_code":3},"0887":{"zip_code":"0230887","prefecture":"岩手県","prefecture_kana":"イワテケン","city":"奥州市","city_kana":"オウシュウシ","town":"水沢矢中","town_kana":"ミズサワヤナカ","prefecture_code":3},"0042":{"zip_code":"0230042","prefecture":"岩手県","prefecture_kana":"イワテケン","city":"奥州市","city_kana":"オウシュウシ","town":"水沢柳町","town_kana":"ミズサワヤナギマチ","prefecture_code":3},"0852":{"zip_code":"0230852","prefecture":"岩手県","prefecture_kana":"イワテケン","city":"奥州市","city_kana":"オウシュウシ","town":"水沢山崎町","town_kana":"ミズサワヤマザキチョウ","prefecture_code":3},"0801":{"zip_code":"0230801","prefecture":"岩手県","prefecture_kana":"イワテケン","city":"奥州市","city_kana":"オウシュウシ","town":"水沢横町","town_kana":"ミズサワヨコマチ","prefecture_code":3},"0893":{"zip_code":"0230893","prefecture":"岩手県","prefecture_kana":"イワテケン","city":"奥州市","city_kana":"オウシュウシ","town":"水沢蓬田","town_kana":"ミズサワヨモギダ","prefecture_code":3},"0864":{"zip_code":"0230864","prefecture":"岩手県","prefecture_kana":"イワテケン","city":"奥州市","city_kana":"オウシュウシ","town":"水沢龍ヶ馬場","town_kana":"ミズサワリュウガババ","prefecture_code":3},"8501":{"zip_code":"0238501","prefecture":"岩手県","city":"奥州市","town":"水沢大手町","prefecture_code":3},"0492":{"zip_code":"0230492","prefecture":"岩手県","city":"奥州市","town":"胆沢南都田","prefecture_code":3},"0493":{"zip_code":"0230493","prefecture":"岩手県","city":"奥州市","town":"胆沢小山","prefecture_code":3},"1192":{"zip_code":"0231192","prefecture":"岩手県","city":"奥州市","town":"江刺大通り","prefecture_code":3}}