{"0202":{"zip_code":"0290202","prefecture":"岩手県","prefecture_kana":"イワテケン","city":"一関市","city_kana":"イチノセキシ","town":"川崎町薄衣","town_kana":"カワサキチョウウスギヌ","prefecture_code":3},"0201":{"zip_code":"0290201","prefecture":"岩手県","prefecture_kana":"イワテケン","city":"一関市","city_kana":"イチノセキシ","town":"川崎町門崎","town_kana":"カワサキチョウカンザキ","prefecture_code":3},"0131":{"zip_code":"0290131","prefecture":"岩手県","prefecture_kana":"イワテケン","city":"一関市","city_kana":"イチノセキシ","town":"狐禅寺","town_kana":"コゼンジ","prefecture_code":3},"0804":{"zip_code":"0290804","prefecture":"岩手県","prefecture_kana":"イワテケン","city":"一関市","city_kana":"イチノセキシ","town":"千厩町磐清水","town_kana":"センマヤチョウイワシミズ","prefecture_code":3},"1111":{"zip_code":"0291111","prefecture":"岩手県","prefecture_kana":"イワテケン","city":"一関市","city_kana":"イチノセキシ","town":"千厩町奥玉","town_kana":"センマヤチョウオクタマ","prefecture_code":3},"0801":{"zip_code":"0290801","prefecture":"岩手県","prefecture_kana":"イワテケン","city":"一関市","city_kana":"イチノセキシ","town":"千厩町清田","town_kana":"センマヤチョウキヨタ","prefecture_code":3},"0802":{"zip_code":"0290802","prefecture":"岩手県","prefecture_kana":"イワテケン","city":"一関市","city_kana":"イチノセキシ","town":"千厩町小梨","town_kana":"センマヤチョウコナシ","prefecture_code":3},"0803":{"zip_code":"0290803","prefecture":"岩手県","prefecture_kana":"イワテケン","city":"一関市","city_kana":"イチノセキシ","town":"千厩町千厩","town_kana":"センマヤチョウセンマヤ","prefecture_code":3},"0711":{"zip_code":"0290711","prefecture":"岩手県","prefecture_kana":"イワテケン","city":"一関市","city_kana":"イチノセキシ","town":"大東町大原","town_kana":"ダイトウチョウオオハラ","prefecture_code":3},"0603":{"zip_code":"0290603","prefecture":"岩手県","prefecture_kana":"イワテケン","city":"一関市","city_kana":"イチノセキシ","town":"大東町沖田","town_kana":"ダイトウチョウオキタ","prefecture_code":3},"0431":{"zip_code":"0290431","prefecture":"岩手県","prefecture_kana":"イワテケン","city":"一関市","city_kana":"イチノセキシ","town":"大東町猿沢","town_kana":"ダイトウチョウサルサワ","prefecture_code":3},"0521":{"zip_code":"0290521","prefecture":"岩手県","prefecture_kana":"イワテケン","city":"一関市","city_kana":"イチノセキシ","town":"大東町渋民","town_kana":"ダイトウチョウシブタミ","prefecture_code":3},"0523":{"zip_code":"0290523","prefecture":"岩手県","prefecture_kana":"イワテケン","city":"一関市","city_kana":"イチノセキシ","town":"大東町摺沢","town_kana":"ダイトウチョウスリサワ","prefecture_code":3},"0522":{"zip_code":"0290522","prefecture":"岩手県","prefecture_kana":"イワテケン","city":"一関市","city_kana":"イチノセキシ","town":"大東町曽慶","town_kana":"ダイトウチョウソゲイ","prefecture_code":3},"0602":{"zip_code":"0290602","prefecture":"岩手県","prefecture_kana":"イワテケン","city":"一関市","city_kana":"イチノセキシ","town":"大東町鳥海","town_kana":"ダイトウチョウトリウミ","prefecture_code":3},"0601":{"zip_code":"0290601","prefecture":"岩手県","prefecture_kana":"イワテケン","city":"一関市","city_kana":"イチノセキシ","town":"大東町中川","town_kana":"ダイトウチョウナカガワ","prefecture_code":3},"0132":{"zip_code":"0290132","prefecture":"岩手県","prefecture_kana":"イワテケン","city":"一関市","city_kana":"イチノセキシ","town":"滝沢","town_kana":"タキザワ","prefecture_code":3},"3103":{"zip_code":"0293103","prefecture":"岩手県","prefecture_kana":"イワテケン","city":"一関市","city_kana":"イチノセキシ","town":"花泉町老松","town_kana":"ハナイズミチョウオイマツ","prefecture_code":3},"3102":{"zip_code":"0293102","prefecture":"岩手県","prefecture_kana":"イワテケン","city":"一関市","city_kana":"イチノセキシ","town":"花泉町金沢","town_kana":"ハナイズミチョウカザワ","prefecture_code":3},"3206":{"zip_code":"0293206","prefecture":"岩手県","prefecture_kana":"イワテケン","city":"一関市","city_kana":"イチノセキシ","town":"花泉町永井","town_kana":"ハナイズミチョウナガイ","prefecture_code":3},"3101":{"zip_code":"0293101","prefecture":"岩手県","prefecture_kana":"イワテケン","city":"一関市","city_kana":"イチノセキシ","town":"花泉町花泉","town_kana":"ハナイズミチョウハナイズミ","prefecture_code":3},"3104":{"zip_code":"0293104","prefecture":"岩手県","prefecture_kana":"イワテケン","city":"一関市","city_kana":"イチノセキシ","town":"花泉町日形","town_kana":"ハナイズミチョウヒカタ","prefecture_code":3},"3207":{"zip_code":"0293207","prefecture":"岩手県","prefecture_kana":"イワテケン","city":"一関市","city_kana":"イチノセキシ","town":"花泉町油島","town_kana":"ハナイズミチョウユシマ","prefecture_code":3},"3105":{"zip_code":"0293105","prefecture":"岩手県","prefecture_kana":"イワテケン","city":"一関市","city_kana":"イチノセキシ","town":"花泉町涌津（一ノ町、二ノ町、上原、境、古川、道下）","town_kana":"ハナイズミチョウワクツ(イチノマチ、ニノマチ、カミハラ、サカイ、フルカワ、ミチシタ)","prefecture_code":3},"3205":{"zip_code":"0293205","prefecture":"岩手県","prefecture_kana":"イワテケン","city":"一関市","city_kana":"イチノセキシ","town":"花泉町涌津（その他）","town_kana":"ハナイズミチョウワクツ(ソノタ)","prefecture_code":3},"0301":{"zip_code":"0290301","prefecture":"岩手県","prefecture_kana":"イワテケン","city":"一関市","city_kana":"イチノセキシ","town":"東山町田河津","town_kana":"ヒガシヤマチョウタコウヅ","prefecture_code":3},"0302":{"zip_code":"0290302","prefecture":"岩手県","prefecture_kana":"イワテケン","city":"一関市","city_kana":"イチノセキシ","town":"東山町長坂","town_kana":"ヒガシヤマチョウナガサカ","prefecture_code":3},"0303":{"zip_code":"0290303","prefecture":"岩手県","prefecture_kana":"イワテケン","city":"一関市","city_kana":"イチノセキシ","town":"東山町松川","town_kana":"ヒガシヤマチョウマツカワ","prefecture_code":3},"3522":{"zip_code":"0293522","prefecture":"岩手県","prefecture_kana":"イワテケン","city":"一関市","city_kana":"イチノセキシ","town":"藤沢町大籠","town_kana":"フジサワチョウオオカゴ","prefecture_code":3},"3311":{"zip_code":"0293311","prefecture":"岩手県","prefecture_kana":"イワテケン","city":"一関市","city_kana":"イチノセキシ","town":"藤沢町黄海","town_kana":"フジサワチョウキノミ","prefecture_code":3},"3403":{"zip_code":"0293403","prefecture":"岩手県","prefecture_kana":"イワテケン","city":"一関市","city_kana":"イチノセキシ","town":"藤沢町砂子田","town_kana":"フジサワチョウスナゴタ","prefecture_code":3},"3404":{"zip_code":"0293404","prefecture":"岩手県","prefecture_kana":"イワテケン","city":"一関市","city_kana":"イチノセキシ","town":"藤沢町徳田","town_kana":"フジサワチョウトクダ","prefecture_code":3},"3402":{"zip_code":"0293402","prefecture":"岩手県","prefecture_kana":"イワテケン","city":"一関市","city_kana":"イチノセキシ","town":"藤沢町新沼","town_kana":"フジサワチョウニイヌマ","prefecture_code":3},"3406":{"zip_code":"0293406","prefecture":"岩手県","prefecture_kana":"イワテケン","city":"一関市","city_kana":"イチノセキシ","town":"藤沢町西口","town_kana":"フジサワチョウニシグチ","prefecture_code":3},"3405":{"zip_code":"0293405","prefecture":"岩手県","prefecture_kana":"イワテケン","city":"一関市","city_kana":"イチノセキシ","town":"藤沢町藤沢","town_kana":"フジサワチョウフジサワ","prefecture_code":3},"3521":{"zip_code":"0293521","prefecture":"岩手県","prefecture_kana":"イワテケン","city":"一関市","city_kana":"イチノセキシ","town":"藤沢町保呂羽","town_kana":"フジサワチョウホロワ","prefecture_code":3},"3401":{"zip_code":"0293401","prefecture":"岩手県","prefecture_kana":"イワテケン","city":"一関市","city_kana":"イチノセキシ","town":"藤沢町増沢","town_kana":"フジサワチョウマスザワ","prefecture_code":3},"1201":{"zip_code":"0291201","prefecture":"岩手県","prefecture_kana":"イワテケン","city":"一関市","city_kana":"イチノセキシ","town":"室根町折壁","town_kana":"ムロネチョウオリカベ","prefecture_code":3},"1211":{"zip_code":"0291211","prefecture":"岩手県","prefecture_kana":"イワテケン","city":"一関市","city_kana":"イチノセキシ","town":"室根町津谷川","town_kana":"ムロネチョウツヤガワ","prefecture_code":3},"1202":{"zip_code":"0291202","prefecture":"岩手県","prefecture_kana":"イワテケン","city":"一関市","city_kana":"イチノセキシ","town":"室根町矢越","town_kana":"ムロネチョウヤゴシ","prefecture_code":3},"0211":{"zip_code":"0290211","prefecture":"岩手県","prefecture_kana":"イワテケン","city":"一関市","city_kana":"イチノセキシ","town":"弥栄","town_kana":"ヤサカエ","prefecture_code":3},"2200":{"zip_code":"0292200","prefecture":"岩手県","prefecture_kana":"イワテケン","city":"陸前高田市","city_kana":"リクゼンタカタシ","town":"以下に掲載がない場合","town_kana":"イカニケイサイガナイバアイ","prefecture_code":3},"2207":{"zip_code":"0292207","prefecture":"岩手県","prefecture_kana":"イワテケン","city":"陸前高田市","city_kana":"リクゼンタカタシ","town":"小友町","town_kana":"オトモチョウ","prefecture_code":3},"2204":{"zip_code":"0292204","prefecture":"岩手県","prefecture_kana":"イワテケン","city":"陸前高田市","city_kana":"リクゼンタカタシ","town":"気仙町","town_kana":"ケセンチョウ","prefecture_code":3},"2205":{"zip_code":"0292205","prefecture":"岩手県","prefecture_kana":"イワテケン","city":"陸前高田市","city_kana":"リクゼンタカタシ","town":"高田町","town_kana":"タカタチョウ","prefecture_code":3},"2203":{"zip_code":"0292203","prefecture":"岩手県","prefecture_kana":"イワテケン","city":"陸前高田市","city_kana":"リクゼンタカタシ","town":"竹駒町","town_kana":"タケコマチョウ","prefecture_code":3},"2208":{"zip_code":"0292208","prefecture":"岩手県","prefecture_kana":"イワテケン","city":"陸前高田市","city_kana":"リクゼンタカタシ","town":"広田町","town_kana":"ヒロタチョウ","prefecture_code":3},"2201":{"zip_code":"0292201","prefecture":"岩手県","prefecture_kana":"イワテケン","city":"陸前高田市","city_kana":"リクゼンタカタシ","town":"矢作町","town_kana":"ヤハギチョウ","prefecture_code":3},"2202":{"zip_code":"0292202","prefecture":"岩手県","prefecture_kana":"イワテケン","city":"陸前高田市","city_kana":"リクゼンタカタシ","town":"横田町","town_kana":"ヨコタチョウ","prefecture_code":3},"2206":{"zip_code":"0292206","prefecture":"岩手県","prefecture_kana":"イワテケン","city":"陸前高田市","city_kana":"リクゼンタカタシ","town":"米崎町","town_kana":"ヨネサキチョウ","prefecture_code":3},"4426":{"zip_code":"0294426","prefecture":"岩手県","prefecture_kana":"イワテケン","city":"奥州市","city_kana":"オウシュウシ","town":"衣川愛宕下","town_kana":"コロモガワアタゴシタ","prefecture_code":3},"4315":{"zip_code":"0294315","prefecture":"岩手県","prefecture_kana":"イワテケン","city":"奥州市","city_kana":"オウシュウシ","town":"衣川天田","town_kana":"コロモガワアマダ","prefecture_code":3},"4365":{"zip_code":"0294365","prefecture":"岩手県","prefecture_kana":"イワテケン","city":"奥州市","city_kana":"オウシュウシ","town":"衣川天土","town_kana":"コロモガワアマツチ","prefecture_code":3},"4307":{"zip_code":"0294307","prefecture":"岩手県","prefecture_kana":"イワテケン","city":"奥州市","city_kana":"オウシュウシ","town":"衣川有浦","town_kana":"コロモガワアリウラ","prefecture_code":3},"4434":{"zip_code":"0294434","prefecture":"岩手県","prefecture_kana":"イワテケン","city":"奥州市","city_kana":"オウシュウシ","town":"衣川池田","town_kana":"コロモガワイケダ","prefecture_code":3},"4433":{"zip_code":"0294433","prefecture":"岩手県","prefecture_kana":"イワテケン","city":"奥州市","city_kana":"オウシュウシ","town":"衣川池田西","town_kana":"コロモガワイケダニシ","prefecture_code":3},"4381":{"zip_code":"0294381","prefecture":"岩手県","prefecture_kana":"イワテケン","city":"奥州市","city_kana":"オウシュウシ","town":"衣川石ヶ沢","town_kana":"コロモガワイシガサワ","prefecture_code":3},"4384":{"zip_code":"0294384","prefecture":"岩手県","prefecture_kana":"イワテケン","city":"奥州市","city_kana":"オウシュウシ","town":"衣川石神","town_kana":"コロモガワイシガミ","prefecture_code":3},"4313":{"zip_code":"0294313","prefecture":"岩手県","prefecture_kana":"イワテケン","city":"奥州市","city_kana":"オウシュウシ","town":"衣川石生","town_kana":"コロモガワイシュウ","prefecture_code":3},"4322":{"zip_code":"0294322","prefecture":"岩手県","prefecture_kana":"イワテケン","city":"奥州市","city_kana":"オウシュウシ","town":"衣川板倉","town_kana":"コロモガワイタクラ","prefecture_code":3},"4352":{"zip_code":"0294352","prefecture":"岩手県","prefecture_kana":"イワテケン","city":"奥州市","city_kana":"オウシュウシ","town":"衣川岩の上","town_kana":"コロモガワイワノウエ","prefecture_code":3},"4465":{"zip_code":"0294465","prefecture":"岩手県","prefecture_kana":"イワテケン","city":"奥州市","city_kana":"オウシュウシ","town":"衣川後滝の沢","town_kana":"コロモガワウシロタキノサワ","prefecture_code":3},"4377":{"zip_code":"0294377","prefecture":"岩手県","prefecture_kana":"イワテケン","city":"奥州市","city_kana":"オウシュウシ","town":"衣川後山","town_kana":"コロモガワウシロヤマ","prefecture_code":3},"4482":{"zip_code":"0294482","prefecture":"岩手県","prefecture_kana":"イワテケン","city":"奥州市","city_kana":"オウシュウシ","town":"衣川畦畑","town_kana":"コロモガワウネハタ","prefecture_code":3},"4481":{"zip_code":"0294481","prefecture":"岩手県","prefecture_kana":"イワテケン","city":"奥州市","city_kana":"オウシュウシ","town":"衣川畦畑山","town_kana":"コロモガワウネハタヤマ","prefecture_code":3},"4425":{"zip_code":"0294425","prefecture":"岩手県","prefecture_kana":"イワテケン","city":"奥州市","city_kana":"オウシュウシ","town":"衣川采女沢","town_kana":"コロモガワウネメザワ","prefecture_code":3},"4442":{"zip_code":"0294442","prefecture":"岩手県","prefecture_kana":"イワテケン","city":"奥州市","city_kana":"オウシュウシ","town":"衣川上野","town_kana":"コロモガワウワノ","prefecture_code":3},"4321":{"zip_code":"0294321","prefecture":"岩手県","prefecture_kana":"イワテケン","city":"奥州市","city_kana":"オウシュウシ","town":"衣川雲南田","town_kana":"コロモガワウンナンダ","prefecture_code":3},"4436":{"zip_code":"0294436","prefecture":"岩手県","prefecture_kana":"イワテケン","city":"奥州市","city_kana":"オウシュウシ","town":"衣川大石ヶ沢","town_kana":"コロモガワオオイシガサワ","prefecture_code":3},"4406":{"zip_code":"0294406","prefecture":"岩手県","prefecture_kana":"イワテケン","city":"奥州市","city_kana":"オウシュウシ","town":"衣川大坂","town_kana":"コロモガワオオザカ","prefecture_code":3},"4308":{"zip_code":"0294308","prefecture":"岩手県","prefecture_kana":"イワテケン","city":"奥州市","city_kana":"オウシュウシ","town":"衣川大平","town_kana":"コロモガワオオダイラ","prefecture_code":3},"4419":{"zip_code":"0294419","prefecture":"岩手県","prefecture_kana":"イワテケン","city":"奥州市","city_kana":"オウシュウシ","town":"衣川大面","town_kana":"コロモガワオオツラ","prefecture_code":3},"4347":{"zip_code":"0294347","prefecture":"岩手県","prefecture_kana":"イワテケン","city":"奥州市","city_kana":"オウシュウシ","town":"衣川大西","town_kana":"コロモガワオオニシ","prefecture_code":3},"4488":{"zip_code":"0294488","prefecture":"岩手県","prefecture_kana":"イワテケン","city":"奥州市","city_kana":"オウシュウシ","town":"衣川大原","town_kana":"コロモガワオオハラ","prefecture_code":3},"4487":{"zip_code":"0294487","prefecture":"岩手県","prefecture_kana":"イワテケン","city":"奥州市","city_kana":"オウシュウシ","town":"衣川大原山","town_kana":"コロモガワオオハラヤマ","prefecture_code":3},"4383":{"zip_code":"0294383","prefecture":"岩手県","prefecture_kana":"イワテケン","city":"奥州市","city_kana":"オウシュウシ","town":"衣川沖の野","town_kana":"コロモガワオキノノ","prefecture_code":3},"4435":{"zip_code":"0294435","prefecture":"岩手県","prefecture_kana":"イワテケン","city":"奥州市","city_kana":"オウシュウシ","town":"衣川押切","town_kana":"コロモガワオシキリ","prefecture_code":3},"4454":{"zip_code":"0294454","prefecture":"岩手県","prefecture_kana":"イワテケン","city":"奥州市","city_kana":"オウシュウシ","town":"衣川表","town_kana":"コロモガワオモテ","prefecture_code":3},"4386":{"zip_code":"0294386","prefecture":"岩手県","prefecture_kana":"イワテケン","city":"奥州市","city_kana":"オウシュウシ","town":"衣川女石","town_kana":"コロモガワオンナイシ","prefecture_code":3},"4326":{"zip_code":"0294326","prefecture":"岩手県","prefecture_kana":"イワテケン","city":"奥州市","city_kana":"オウシュウシ","town":"衣川懸田","town_kana":"コロモガワカケダ","prefecture_code":3},"4452":{"zip_code":"0294452","prefecture":"岩手県","prefecture_kana":"イワテケン","city":"奥州市","city_kana":"オウシュウシ","town":"衣川月山","town_kana":"コロモガワガッサン","prefecture_code":3},"4388":{"zip_code":"0294388","prefecture":"岩手県","prefecture_kana":"イワテケン","city":"奥州市","city_kana":"オウシュウシ","town":"衣川上大森","town_kana":"コロモガワカミオオモリ","prefecture_code":3},"4474":{"zip_code":"0294474","prefecture":"岩手県","prefecture_kana":"イワテケン","city":"奥州市","city_kana":"オウシュウシ","town":"衣川上河内","town_kana":"コロモガワカミカワウチ","prefecture_code":3},"4411":{"zip_code":"0294411","prefecture":"岩手県","prefecture_kana":"イワテケン","city":"奥州市","city_kana":"オウシュウシ","town":"衣川上小路","town_kana":"コロモガワカミコウジ","prefecture_code":3},"4491":{"zip_code":"0294491","prefecture":"岩手県","prefecture_kana":"イワテケン","city":"奥州市","city_kana":"オウシュウシ","town":"衣川上立沢","town_kana":"コロモガワカミタチサワ","prefecture_code":3},"4329":{"zip_code":"0294329","prefecture":"岩手県","prefecture_kana":"イワテケン","city":"奥州市","city_kana":"オウシュウシ","town":"衣川上寺田","town_kana":"コロモガワカミテラダ","prefecture_code":3},"4437":{"zip_code":"0294437","prefecture":"岩手県","prefecture_kana":"イワテケン","city":"奥州市","city_kana":"オウシュウシ","town":"衣川唐金","town_kana":"コロモガワカラカネ","prefecture_code":3},"4446":{"zip_code":"0294446","prefecture":"岩手県","prefecture_kana":"イワテケン","city":"奥州市","city_kana":"オウシュウシ","town":"衣川川端","town_kana":"コロモガワカワハタ","prefecture_code":3},"4407":{"zip_code":"0294407","prefecture":"岩手県","prefecture_kana":"イワテケン","city":"奥州市","city_kana":"オウシュウシ","town":"衣川金成","town_kana":"コロモガワカンナリ","prefecture_code":3},"4303":{"zip_code":"0294303","prefecture":"岩手県","prefecture_kana":"イワテケン","city":"奥州市","city_kana":"オウシュウシ","town":"衣川衣原","town_kana":"コロモガワキヌハラ","prefecture_code":3},"4353":{"zip_code":"0294353","prefecture":"岩手県","prefecture_kana":"イワテケン","city":"奥州市","city_kana":"オウシュウシ","town":"衣川旧殿","town_kana":"コロモガワキュウデン","prefecture_code":3},"4375":{"zip_code":"0294375","prefecture":"岩手県","prefecture_kana":"イワテケン","city":"奥州市","city_kana":"オウシュウシ","town":"衣川鞍掛","town_kana":"コロモガワクラカケ","prefecture_code":3},"4424":{"zip_code":"0294424","prefecture":"岩手県","prefecture_kana":"イワテケン","city":"奥州市","city_kana":"オウシュウシ","town":"衣川九輪堂","town_kana":"コロモガワクリンドウ","prefecture_code":3},"4405":{"zip_code":"0294405","prefecture":"岩手県","prefecture_kana":"イワテケン","city":"奥州市","city_kana":"オウシュウシ","town":"衣川桑木谷地","town_kana":"コロモガワクワノキヤチ","prefecture_code":3},"4317":{"zip_code":"0294317","prefecture":"岩手県","prefecture_kana":"イワテケン","city":"奥州市","city_kana":"オウシュウシ","town":"衣川桑畑","town_kana":"コロモガワクワハタ","prefecture_code":3},"4323":{"zip_code":"0294323","prefecture":"岩手県","prefecture_kana":"イワテケン","city":"奥州市","city_kana":"オウシュウシ","town":"衣川小安代","town_kana":"コロモガワコアンシロ","prefecture_code":3},"4306":{"zip_code":"0294306","prefecture":"岩手県","prefecture_kana":"イワテケン","city":"奥州市","city_kana":"オウシュウシ","town":"衣川小田","town_kana":"コロモガワコダ","prefecture_code":3},"4432":{"zip_code":"0294432","prefecture":"岩手県","prefecture_kana":"イワテケン","city":"奥州市","city_kana":"オウシュウシ","town":"衣川小林","town_kana":"コロモガワコバヤシ","prefecture_code":3},"4362":{"zip_code":"0294362","prefecture":"岩手県","prefecture_kana":"イワテケン","city":"奥州市","city_kana":"オウシュウシ","town":"衣川小林山","town_kana":"コロモガワコバヤシヤマ","prefecture_code":3},"4325":{"zip_code":"0294325","prefecture":"岩手県","prefecture_kana":"イワテケン","city":"奥州市","city_kana":"オウシュウシ","town":"衣川小正板","town_kana":"コロモガワコマサイタ","prefecture_code":3},"4333":{"zip_code":"0294333","prefecture":"岩手県","prefecture_kana":"イワテケン","city":"奥州市","city_kana":"オウシュウシ","town":"衣川駒場","town_kana":"コロモガワコマバ","prefecture_code":3},"4344":{"zip_code":"0294344","prefecture":"岩手県","prefecture_kana":"イワテケン","city":"奥州市","city_kana":"オウシュウシ","town":"衣川沢田","town_kana":"コロモガワサワダ","prefecture_code":3},"4444":{"zip_code":"0294444","prefecture":"岩手県","prefecture_kana":"イワテケン","city":"奥州市","city_kana":"オウシュウシ","town":"衣川清水の上","town_kana":"コロモガワシミズノウエ","prefecture_code":3},"4387":{"zip_code":"0294387","prefecture":"岩手県","prefecture_kana":"イワテケン","city":"奥州市","city_kana":"オウシュウシ","town":"衣川下大森","town_kana":"コロモガワシモオオモリ","prefecture_code":3},"4471":{"zip_code":"0294471","prefecture":"岩手県","prefecture_kana":"イワテケン","city":"奥州市","city_kana":"オウシュウシ","town":"衣川下河内","town_kana":"コロモガワシモカワウチ","prefecture_code":3},"4492":{"zip_code":"0294492","prefecture":"岩手県","prefecture_kana":"イワテケン","city":"奥州市","city_kana":"オウシュウシ","town":"衣川下立沢","town_kana":"コロモガワシモタチサワ","prefecture_code":3},"4328":{"zip_code":"0294328","prefecture":"岩手県","prefecture_kana":"イワテケン","city":"奥州市","city_kana":"オウシュウシ","town":"衣川下寺田","town_kana":"コロモガワシモテラダ","prefecture_code":3},"4378":{"zip_code":"0294378","prefecture":"岩手県","prefecture_kana":"イワテケン","city":"奥州市","city_kana":"オウシュウシ","town":"衣川菖蒲平","town_kana":"コロモガワショウブダイラ","prefecture_code":3},"4427":{"zip_code":"0294427","prefecture":"岩手県","prefecture_kana":"イワテケン","city":"奥州市","city_kana":"オウシュウシ","town":"衣川陣場下","town_kana":"コロモガワジンバシタ","prefecture_code":3},"4348":{"zip_code":"0294348","prefecture":"岩手県","prefecture_kana":"イワテケン","city":"奥州市","city_kana":"オウシュウシ","town":"衣川杉野","town_kana":"コロモガワスギノ","prefecture_code":3},"4418":{"zip_code":"0294418","prefecture":"岩手県","prefecture_kana":"イワテケン","city":"奥州市","city_kana":"オウシュウシ","town":"衣川杉林","town_kana":"コロモガワスギバヤシ","prefecture_code":3},"4413":{"zip_code":"0294413","prefecture":"岩手県","prefecture_kana":"イワテケン","city":"奥州市","city_kana":"オウシュウシ","town":"衣川堰下","town_kana":"コロモガワセキシタ","prefecture_code":3},"4382":{"zip_code":"0294382","prefecture":"岩手県","prefecture_kana":"イワテケン","city":"奥州市","city_kana":"オウシュウシ","town":"衣川関袋","town_kana":"コロモガワセキブクロ","prefecture_code":3},"4422":{"zip_code":"0294422","prefecture":"岩手県","prefecture_kana":"イワテケン","city":"奥州市","city_kana":"オウシュウシ","town":"衣川瀬原","town_kana":"コロモガワセワラ","prefecture_code":3},"4423":{"zip_code":"0294423","prefecture":"岩手県","prefecture_kana":"イワテケン","city":"奥州市","city_kana":"オウシュウシ","town":"衣川瀬原西浦","town_kana":"コロモガワセワラニシウラ","prefecture_code":3},"4484":{"zip_code":"0294484","prefecture":"岩手県","prefecture_kana":"イワテケン","city":"奥州市","city_kana":"オウシュウシ","town":"衣川噌味","town_kana":"コロモガワソウミ","prefecture_code":3},"4304":{"zip_code":"0294304","prefecture":"岩手県","prefecture_kana":"イワテケン","city":"奥州市","city_kana":"オウシュウシ","town":"衣川外の沢","town_kana":"コロモガワソトノサワ","prefecture_code":3},"4486":{"zip_code":"0294486","prefecture":"岩手県","prefecture_kana":"イワテケン","city":"奥州市","city_kana":"オウシュウシ","town":"衣川鷹の巣","town_kana":"コロモガワタカノス","prefecture_code":3},"4342":{"zip_code":"0294342","prefecture":"岩手県","prefecture_kana":"イワテケン","city":"奥州市","city_kana":"オウシュウシ","town":"衣川高保呂","town_kana":"コロモガワタカホロ","prefecture_code":3},"4345":{"zip_code":"0294345","prefecture":"岩手県","prefecture_kana":"イワテケン","city":"奥州市","city_kana":"オウシュウシ","town":"衣川館城","town_kana":"コロモガワタテシロ","prefecture_code":3},"4431":{"zip_code":"0294431","prefecture":"岩手県","prefecture_kana":"イワテケン","city":"奥州市","city_kana":"オウシュウシ","town":"衣川田中","town_kana":"コロモガワタナカ","prefecture_code":3},"4439":{"zip_code":"0294439","prefecture":"岩手県","prefecture_kana":"イワテケン","city":"奥州市","city_kana":"オウシュウシ","town":"衣川田中西","town_kana":"コロモガワタナカニシ","prefecture_code":3},"4408":{"zip_code":"0294408","prefecture":"岩手県","prefecture_kana":"イワテケン","city":"奥州市","city_kana":"オウシュウシ","town":"衣川土屋","town_kana":"コロモガワツチヤ","prefecture_code":3},"4404":{"zip_code":"0294404","prefecture":"岩手県","prefecture_kana":"イワテケン","city":"奥州市","city_kana":"オウシュウシ","town":"衣川寺袋","town_kana":"コロモガワテラブクロ","prefecture_code":3},"4385":{"zip_code":"0294385","prefecture":"岩手県","prefecture_kana":"イワテケン","city":"奥州市","city_kana":"オウシュウシ","town":"衣川富沢","town_kana":"コロモガワトミサワ","prefecture_code":3},"4412":{"zip_code":"0294412","prefecture":"岩手県","prefecture_kana":"イワテケン","city":"奥州市","city_kana":"オウシュウシ","town":"衣川富田","town_kana":"コロモガワトミタ","prefecture_code":3},"4417":{"zip_code":"0294417","prefecture":"岩手県","prefecture_kana":"イワテケン","city":"奥州市","city_kana":"オウシュウシ","town":"衣川富田前","town_kana":"コロモガワトミタマエ","prefecture_code":3},"4346":{"zip_code":"0294346","prefecture":"岩手県","prefecture_kana":"イワテケン","city":"奥州市","city_kana":"オウシュウシ","town":"衣川豊巻","town_kana":"コロモガワトヨマキ","prefecture_code":3},"4389":{"zip_code":"0294389","prefecture":"岩手県","prefecture_kana":"イワテケン","city":"奥州市","city_kana":"オウシュウシ","town":"衣川長板沢","town_kana":"コロモガワナガイタサワ","prefecture_code":3},"4472":{"zip_code":"0294472","prefecture":"岩手県","prefecture_kana":"イワテケン","city":"奥州市","city_kana":"オウシュウシ","town":"衣川中河内","town_kana":"コロモガワナカカワウチ","prefecture_code":3},"4305":{"zip_code":"0294305","prefecture":"岩手県","prefecture_kana":"イワテケン","city":"奥州市","city_kana":"オウシュウシ","town":"衣川長袋","town_kana":"コロモガワナガフクロ","prefecture_code":3},"4361":{"zip_code":"0294361","prefecture":"岩手県","prefecture_kana":"イワテケン","city":"奥州市","city_kana":"オウシュウシ","town":"衣川長嚢","town_kana":"コロモガワナガフクロ","prefecture_code":3},"4314":{"zip_code":"0294314","prefecture":"岩手県","prefecture_kana":"イワテケン","city":"奥州市","city_kana":"オウシュウシ","town":"衣川中屋敷","town_kana":"コロモガワナカヤシキ","prefecture_code":3},"4475":{"zip_code":"0294475","prefecture":"岩手県","prefecture_kana":"イワテケン","city":"奥州市","city_kana":"オウシュウシ","town":"衣川中山","town_kana":"コロモガワナカヤマ","prefecture_code":3},"4351":{"zip_code":"0294351","prefecture":"岩手県","prefecture_kana":"イワテケン","city":"奥州市","city_kana":"オウシュウシ","town":"衣川夏秋","town_kana":"コロモガワナツアキ","prefecture_code":3},"4363":{"zip_code":"0294363","prefecture":"岩手県","prefecture_kana":"イワテケン","city":"奥州市","city_kana":"オウシュウシ","town":"衣川夏梨","town_kana":"コロモガワナツナシ","prefecture_code":3},"4445":{"zip_code":"0294445","prefecture":"岩手県","prefecture_kana":"イワテケン","city":"奥州市","city_kana":"オウシュウシ","town":"衣川七日市場","town_kana":"コロモガワナノカイチバ","prefecture_code":3},"4441":{"zip_code":"0294441","prefecture":"岩手県","prefecture_kana":"イワテケン","city":"奥州市","city_kana":"オウシュウシ","town":"衣川並木前","town_kana":"コロモガワナミキマエ","prefecture_code":3},"4495":{"zip_code":"0294495","prefecture":"岩手県","prefecture_kana":"イワテケン","city":"奥州市","city_kana":"オウシュウシ","town":"衣川楢原","town_kana":"コロモガワナラハラ","prefecture_code":3},"4494":{"zip_code":"0294494","prefecture":"岩手県","prefecture_kana":"イワテケン","city":"奥州市","city_kana":"オウシュウシ","town":"衣川楢原山","town_kana":"コロモガワナラハラヤマ","prefecture_code":3},"4364":{"zip_code":"0294364","prefecture":"岩手県","prefecture_kana":"イワテケン","city":"奥州市","city_kana":"オウシュウシ","town":"衣川西風山","town_kana":"コロモガワナレヤマ","prefecture_code":3},"4316":{"zip_code":"0294316","prefecture":"岩手県","prefecture_kana":"イワテケン","city":"奥州市","city_kana":"オウシュウシ","town":"衣川苗代沢","town_kana":"コロモガワナワシロサワ","prefecture_code":3},"4456":{"zip_code":"0294456","prefecture":"岩手県","prefecture_kana":"イワテケン","city":"奥州市","city_kana":"オウシュウシ","town":"衣川西裏","town_kana":"コロモガワニシウラ","prefecture_code":3},"4312":{"zip_code":"0294312","prefecture":"岩手県","prefecture_kana":"イワテケン","city":"奥州市","city_kana":"オウシュウシ","town":"衣川西窪","town_kana":"コロモガワニシクボ","prefecture_code":3},"4483":{"zip_code":"0294483","prefecture":"岩手県","prefecture_kana":"イワテケン","city":"奥州市","city_kana":"オウシュウシ","town":"衣川沼野","town_kana":"コロモガワヌマノ","prefecture_code":3},"4493":{"zip_code":"0294493","prefecture":"岩手県","prefecture_kana":"イワテケン","city":"奥州市","city_kana":"オウシュウシ","town":"衣川野崎","town_kana":"コロモガワノザキ","prefecture_code":3},"4354":{"zip_code":"0294354","prefecture":"岩手県","prefecture_kana":"イワテケン","city":"奥州市","city_kana":"オウシュウシ","town":"衣川除","town_kana":"コロモガワノゾキ","prefecture_code":3},"4414":{"zip_code":"0294414","prefecture":"岩手県","prefecture_kana":"イワテケン","city":"奥州市","city_kana":"オウシュウシ","town":"衣川野田","town_kana":"コロモガワノダ","prefecture_code":3},"4343":{"zip_code":"0294343","prefecture":"岩手県","prefecture_kana":"イワテケン","city":"奥州市","city_kana":"オウシュウシ","town":"衣川能登屋敷","town_kana":"コロモガワノトヤシキ","prefecture_code":3},"4462":{"zip_code":"0294462","prefecture":"岩手県","prefecture_kana":"イワテケン","city":"奥州市","city_kana":"オウシュウシ","town":"衣川八千","town_kana":"コロモガワハッセン","prefecture_code":3},"4401":{"zip_code":"0294401","prefecture":"岩手県","prefecture_kana":"イワテケン","city":"奥州市","city_kana":"オウシュウシ","town":"衣川張山","town_kana":"コロモガワハリヤマ","prefecture_code":3},"4451":{"zip_code":"0294451","prefecture":"岩手県","prefecture_kana":"イワテケン","city":"奥州市","city_kana":"オウシュウシ","town":"衣川東裏","town_kana":"コロモガワヒガシウラ","prefecture_code":3},"4421":{"zip_code":"0294421","prefecture":"岩手県","prefecture_kana":"イワテケン","city":"奥州市","city_kana":"オウシュウシ","town":"衣川日向","town_kana":"コロモガワヒナタ","prefecture_code":3},"4371":{"zip_code":"0294371","prefecture":"岩手県","prefecture_kana":"イワテケン","city":"奥州市","city_kana":"オウシュウシ","town":"衣川桧山沢","town_kana":"コロモガワヒヤマサワ","prefecture_code":3},"4374":{"zip_code":"0294374","prefecture":"岩手県","prefecture_kana":"イワテケン","city":"奥州市","city_kana":"オウシュウシ","town":"衣川桧山沢山","town_kana":"コロモガワヒヤマサワヤマ","prefecture_code":3},"4461":{"zip_code":"0294461","prefecture":"岩手県","prefecture_kana":"イワテケン","city":"奥州市","city_kana":"オウシュウシ","town":"衣川平","town_kana":"コロモガワヒラ","prefecture_code":3},"4331":{"zip_code":"0294331","prefecture":"岩手県","prefecture_kana":"イワテケン","city":"奥州市","city_kana":"オウシュウシ","town":"衣川深沢","town_kana":"コロモガワフカサワ","prefecture_code":3},"4311":{"zip_code":"0294311","prefecture":"岩手県","prefecture_kana":"イワテケン","city":"奥州市","city_kana":"オウシュウシ","town":"衣川古館","town_kana":"コロモガワフルダテ","prefecture_code":3},"4332":{"zip_code":"0294332","prefecture":"岩手県","prefecture_kana":"イワテケン","city":"奥州市","city_kana":"オウシュウシ","town":"衣川古戸","town_kana":"コロモガワフルド","prefecture_code":3},"4485":{"zip_code":"0294485","prefecture":"岩手県","prefecture_kana":"イワテケン","city":"奥州市","city_kana":"オウシュウシ","town":"衣川宝塔谷地","town_kana":"コロモガワホウトウヤチ","prefecture_code":3},"4402":{"zip_code":"0294402","prefecture":"岩手県","prefecture_kana":"イワテケン","city":"奥州市","city_kana":"オウシュウシ","town":"衣川星屋","town_kana":"コロモガワホシヤ","prefecture_code":3},"4403":{"zip_code":"0294403","prefecture":"岩手県","prefecture_kana":"イワテケン","city":"奥州市","city_kana":"オウシュウシ","town":"衣川本田原","town_kana":"コロモガワホンダワラ","prefecture_code":3},"4496":{"zip_code":"0294496","prefecture":"岩手県","prefecture_kana":"イワテケン","city":"奥州市","city_kana":"オウシュウシ","town":"衣川真打","town_kana":"コロモガワマウチ","prefecture_code":3},"4464":{"zip_code":"0294464","prefecture":"岩手県","prefecture_kana":"イワテケン","city":"奥州市","city_kana":"オウシュウシ","town":"衣川前滝の沢","town_kana":"コロモガワマエタキノサワ","prefecture_code":3},"4327":{"zip_code":"0294327","prefecture":"岩手県","prefecture_kana":"イワテケン","city":"奥州市","city_kana":"オウシュウシ","town":"衣川馬懸","town_kana":"コロモガワマガケ","prefecture_code":3},"4324":{"zip_code":"0294324","prefecture":"岩手県","prefecture_kana":"イワテケン","city":"奥州市","city_kana":"オウシュウシ","town":"衣川正板","town_kana":"コロモガワマサイタ","prefecture_code":3},"4372":{"zip_code":"0294372","prefecture":"岩手県","prefecture_kana":"イワテケン","city":"奥州市","city_kana":"オウシュウシ","town":"衣川松林","town_kana":"コロモガワマツバヤシ","prefecture_code":3},"4443":{"zip_code":"0294443","prefecture":"岩手県","prefecture_kana":"イワテケン","city":"奥州市","city_kana":"オウシュウシ","town":"衣川六日市場","town_kana":"コロモガワムイカイチバ","prefecture_code":3},"4473":{"zip_code":"0294473","prefecture":"岩手県","prefecture_kana":"イワテケン","city":"奥州市","city_kana":"オウシュウシ","town":"衣川向","town_kana":"コロモガワムカイ","prefecture_code":3},"4416":{"zip_code":"0294416","prefecture":"岩手県","prefecture_kana":"イワテケン","city":"奥州市","city_kana":"オウシュウシ","town":"衣川向館","town_kana":"コロモガワムカイダテ","prefecture_code":3},"4415":{"zip_code":"0294415","prefecture":"岩手県","prefecture_kana":"イワテケン","city":"奥州市","city_kana":"オウシュウシ","town":"衣川向館谷起","town_kana":"コロモガワムカイダテヤギ","prefecture_code":3},"4438":{"zip_code":"0294438","prefecture":"岩手県","prefecture_kana":"イワテケン","city":"奥州市","city_kana":"オウシュウシ","town":"衣川室の木","town_kana":"コロモガワムロノキ","prefecture_code":3},"4334":{"zip_code":"0294334","prefecture":"岩手県","prefecture_kana":"イワテケン","city":"奥州市","city_kana":"オウシュウシ","town":"衣川百ヶ袋","town_kana":"コロモガワモガフクロ","prefecture_code":3},"4497":{"zip_code":"0294497","prefecture":"岩手県","prefecture_kana":"イワテケン","city":"奥州市","city_kana":"オウシュウシ","town":"衣川餅転","town_kana":"コロモガワモチコロバシ","prefecture_code":3},"4376":{"zip_code":"0294376","prefecture":"岩手県","prefecture_kana":"イワテケン","city":"奥州市","city_kana":"オウシュウシ","town":"衣川本巻","town_kana":"コロモガワモトマキ","prefecture_code":3},"4355":{"zip_code":"0294355","prefecture":"岩手県","prefecture_kana":"イワテケン","city":"奥州市","city_kana":"オウシュウシ","town":"衣川山岸","town_kana":"コロモガワヤマギシ","prefecture_code":3},"4453":{"zip_code":"0294453","prefecture":"岩手県","prefecture_kana":"イワテケン","city":"奥州市","city_kana":"オウシュウシ","town":"衣川山口","town_kana":"コロモガワヤマグチ","prefecture_code":3},"4373":{"zip_code":"0294373","prefecture":"岩手県","prefecture_kana":"イワテケン","city":"奥州市","city_kana":"オウシュウシ","town":"衣川山田","town_kana":"コロモガワヤマダ","prefecture_code":3},"4455":{"zip_code":"0294455","prefecture":"岩手県","prefecture_kana":"イワテケン","city":"奥州市","city_kana":"オウシュウシ","town":"衣川横道下","town_kana":"コロモガワヨコミチシタ","prefecture_code":3},"4463":{"zip_code":"0294463","prefecture":"岩手県","prefecture_kana":"イワテケン","city":"奥州市","city_kana":"オウシュウシ","town":"衣川葭ヶ沢","town_kana":"コロモガワヨシガサワ","prefecture_code":3},"4341":{"zip_code":"0294341","prefecture":"岩手県","prefecture_kana":"イワテケン","city":"奥州市","city_kana":"オウシュウシ","town":"衣川六道","town_kana":"コロモガワロクドウ","prefecture_code":3},"4205":[{"zip_code":"0294205","prefecture":"岩手県","prefecture_kana":"イワテケン","city":"奥州市","city_kana":"オウシュウシ","town":"前沢合ノ沢","town_kana":"マエサワアイノサワ","prefecture_code":3},{"zip_code":"0294205","prefecture":"岩手県","prefecture_kana":"イワテケン","city":"奥州市","city_kana":"オウシュウシ","town":"前沢安寺沢","town_kana":"マエサワアテラサワ","prefecture_code":3},{"zip_code":"0294205","prefecture":"岩手県","prefecture_kana":"イワテケン","city":"奥州市","city_kana":"オウシュウシ","town":"前沢石田","town_kana":"マエサワイシダ","prefecture_code":3},{"zip_code":"0294205","prefecture":"岩手県","prefecture_kana":"イワテケン","city":"奥州市","city_kana":"オウシュウシ","town":"前沢一ノ沢","town_kana":"マエサワイチノサワ","prefecture_code":3},{"zip_code":"0294205","prefecture":"岩手県","prefecture_kana":"イワテケン","city":"奥州市","city_kana":"オウシュウシ","town":"前沢鵜ノ木","town_kana":"マエサワウノキ","prefecture_code":3},{"zip_code":"0294205","prefecture":"岩手県","prefecture_kana":"イワテケン","city":"奥州市","city_kana":"オウシュウシ","town":"前沢鵜ノ木田","town_kana":"マエサワウノキダ","prefecture_code":3},{"zip_code":"0294205","prefecture":"岩手県","prefecture_kana":"イワテケン","city":"奥州市","city_kana":"オウシュウシ","town":"前沢うるし野","town_kana":"マエサワウルシノ","prefecture_code":3},{"zip_code":"0294205","prefecture":"岩手県","prefecture_kana":"イワテケン","city":"奥州市","city_kana":"オウシュウシ","town":"前沢大袋","town_kana":"マエサワオオブクロ","prefecture_code":3},{"zip_code":"0294205","prefecture":"岩手県","prefecture_kana":"イワテケン","city":"奥州市","city_kana":"オウシュウシ","town":"前沢沖田","town_kana":"マエサワオキタ","prefecture_code":3},{"zip_code":"0294205","prefecture":"岩手県","prefecture_kana":"イワテケン","city":"奥州市","city_kana":"オウシュウシ","town":"前沢小沢口","town_kana":"マエサワオサワグチ","prefecture_code":3},{"zip_code":"0294205","prefecture":"岩手県","prefecture_kana":"イワテケン","city":"奥州市","city_kana":"オウシュウシ","town":"前沢川内","town_kana":"マエサワカワウチ","prefecture_code":3},{"zip_code":"0294205","prefecture":"岩手県","prefecture_kana":"イワテケン","city":"奥州市","city_kana":"オウシュウシ","town":"前沢衣関","town_kana":"マエサワキヌトメ","prefecture_code":3},{"zip_code":"0294205","prefecture":"岩手県","prefecture_kana":"イワテケン","city":"奥州市","city_kana":"オウシュウシ","town":"前沢里","town_kana":"マエサワサト","prefecture_code":3},{"zip_code":"0294205","prefecture":"岩手県","prefecture_kana":"イワテケン","city":"奥州市","city_kana":"オウシュウシ","town":"前沢清水","town_kana":"マエサワシミズ","prefecture_code":3},{"zip_code":"0294205","prefecture":"岩手県","prefecture_kana":"イワテケン","city":"奥州市","city_kana":"オウシュウシ","town":"前沢蛇ノ鼻","town_kana":"マエサワジャノハナ","prefecture_code":3},{"zip_code":"0294205","prefecture":"岩手県","prefecture_kana":"イワテケン","city":"奥州市","city_kana":"オウシュウシ","town":"前沢白鳥舘","town_kana":"マエサワシロトリダテ","prefecture_code":3},{"zip_code":"0294205","prefecture":"岩手県","prefecture_kana":"イワテケン","city":"奥州市","city_kana":"オウシュウシ","town":"前沢新城","town_kana":"マエサワシンジョウ","prefecture_code":3},{"zip_code":"0294205","prefecture":"岩手県","prefecture_kana":"イワテケン","city":"奥州市","city_kana":"オウシュウシ","town":"前沢堤田","town_kana":"マエサワツツミダ","prefecture_code":3},{"zip_code":"0294205","prefecture":"岩手県","prefecture_kana":"イワテケン","city":"奥州市","city_kana":"オウシュウシ","town":"前沢照井舘","town_kana":"マエサワテルイダテ","prefecture_code":3},{"zip_code":"0294205","prefecture":"岩手県","prefecture_kana":"イワテケン","city":"奥州市","city_kana":"オウシュウシ","town":"前沢徳沢","town_kana":"マエサワトクサワ","prefecture_code":3},{"zip_code":"0294205","prefecture":"岩手県","prefecture_kana":"イワテケン","city":"奥州市","city_kana":"オウシュウシ","town":"前沢永沢","town_kana":"マエサワナガサワ","prefecture_code":3},{"zip_code":"0294205","prefecture":"岩手県","prefecture_kana":"イワテケン","city":"奥州市","city_kana":"オウシュウシ","town":"前沢長根","town_kana":"マエサワナガネ","prefecture_code":3},{"zip_code":"0294205","prefecture":"岩手県","prefecture_kana":"イワテケン","city":"奥州市","city_kana":"オウシュウシ","town":"前沢中屋敷","town_kana":"マエサワナカヤシキ","prefecture_code":3},{"zip_code":"0294205","prefecture":"岩手県","prefecture_kana":"イワテケン","city":"奥州市","city_kana":"オウシュウシ","town":"前沢浪洗","town_kana":"マエサワナミアライ","prefecture_code":3},{"zip_code":"0294205","prefecture":"岩手県","prefecture_kana":"イワテケン","city":"奥州市","city_kana":"オウシュウシ","town":"前沢二ノ沢","town_kana":"マエサワニノサワ","prefecture_code":3},{"zip_code":"0294205","prefecture":"岩手県","prefecture_kana":"イワテケン","city":"奥州市","city_kana":"オウシュウシ","town":"前沢沼尻","town_kana":"マエサワヌマジリ","prefecture_code":3},{"zip_code":"0294205","prefecture":"岩手県","prefecture_kana":"イワテケン","city":"奥州市","city_kana":"オウシュウシ","town":"前沢沼ノ沢","town_kana":"マエサワヌマノサワ","prefecture_code":3},{"zip_code":"0294205","prefecture":"岩手県","prefecture_kana":"イワテケン","city":"奥州市","city_kana":"オウシュウシ","town":"前沢日向","town_kana":"マエサワヒナタ","prefecture_code":3},{"zip_code":"0294205","prefecture":"岩手県","prefecture_kana":"イワテケン","city":"奥州市","city_kana":"オウシュウシ","town":"前沢福養","town_kana":"マエサワフクヨウ","prefecture_code":3},{"zip_code":"0294205","prefecture":"岩手県","prefecture_kana":"イワテケン","city":"奥州市","city_kana":"オウシュウシ","town":"前沢干場","town_kana":"マエサワホシバ","prefecture_code":3},{"zip_code":"0294205","prefecture":"岩手県","prefecture_kana":"イワテケン","city":"奥州市","city_kana":"オウシュウシ","town":"前沢前野","town_kana":"マエサワマエノ","prefecture_code":3},{"zip_code":"0294205","prefecture":"岩手県","prefecture_kana":"イワテケン","city":"奥州市","city_kana":"オウシュウシ","town":"前沢南陣場","town_kana":"マエサワミナミジンバ","prefecture_code":3},{"zip_code":"0294205","prefecture":"岩手県","prefecture_kana":"イワテケン","city":"奥州市","city_kana":"オウシュウシ","town":"前沢南塔ケ崎","town_kana":"マエサワミナミトウガサキ","prefecture_code":3},{"zip_code":"0294205","prefecture":"岩手県","prefecture_kana":"イワテケン","city":"奥州市","city_kana":"オウシュウシ","town":"前沢南中島","town_kana":"マエサワミナミナカジマ","prefecture_code":3},{"zip_code":"0294205","prefecture":"岩手県","prefecture_kana":"イワテケン","city":"奥州市","city_kana":"オウシュウシ","town":"前沢箕輪","town_kana":"マエサワミノワ","prefecture_code":3},{"zip_code":"0294205","prefecture":"岩手県","prefecture_kana":"イワテケン","city":"奥州市","city_kana":"オウシュウシ","town":"前沢両手沢","town_kana":"マエサワモロテザワ","prefecture_code":3},{"zip_code":"0294205","prefecture":"岩手県","prefecture_kana":"イワテケン","city":"奥州市","city_kana":"オウシュウシ","town":"前沢谷記","town_kana":"マエサワヤギ","prefecture_code":3},{"zip_code":"0294205","prefecture":"岩手県","prefecture_kana":"イワテケン","city":"奥州市","city_kana":"オウシュウシ","town":"前沢谷起","town_kana":"マエサワヤギ","prefecture_code":3},{"zip_code":"0294205","prefecture":"岩手県","prefecture_kana":"イワテケン","city":"奥州市","city_kana":"オウシュウシ","town":"前沢谷記田","town_kana":"マエサワヤギタ","prefecture_code":3},{"zip_code":"0294205","prefecture":"岩手県","prefecture_kana":"イワテケン","city":"奥州市","city_kana":"オウシュウシ","town":"前沢谷起田","town_kana":"マエサワヤギタ","prefecture_code":3},{"zip_code":"0294205","prefecture":"岩手県","prefecture_kana":"イワテケン","city":"奥州市","city_kana":"オウシュウシ","town":"前沢櫓前","town_kana":"マエサワヤグラマエ","prefecture_code":3},{"zip_code":"0294205","prefecture":"岩手県","prefecture_kana":"イワテケン","city":"奥州市","city_kana":"オウシュウシ","town":"前沢六本松","town_kana":"マエサワロッポンマツ","prefecture_code":3}],"4206":[{"zip_code":"0294206","prefecture":"岩手県","prefecture_kana":"イワテケン","city":"奥州市","city_kana":"オウシュウシ","town":"前沢赤坂","town_kana":"マエサワアカサカ","prefecture_code":3},{"zip_code":"0294206","prefecture":"岩手県","prefecture_kana":"イワテケン","city":"奥州市","city_kana":"オウシュウシ","town":"前沢裏新田","town_kana":"マエサワウラシンデン","prefecture_code":3},{"zip_code":"0294206","prefecture":"岩手県","prefecture_kana":"イワテケン","city":"奥州市","city_kana":"オウシュウシ","town":"前沢狐石","town_kana":"マエサワキツネイシ","prefecture_code":3},{"zip_code":"0294206","prefecture":"岩手県","prefecture_kana":"イワテケン","city":"奥州市","city_kana":"オウシュウシ","town":"前沢駒水","town_kana":"マエサワコマスイ","prefecture_code":3},{"zip_code":"0294206","prefecture":"岩手県","prefecture_kana":"イワテケン","city":"奥州市","city_kana":"オウシュウシ","town":"前沢陣場","town_kana":"マエサワジンバ","prefecture_code":3},{"zip_code":"0294206","prefecture":"岩手県","prefecture_kana":"イワテケン","city":"奥州市","city_kana":"オウシュウシ","town":"前沢太郎ケ沢","town_kana":"マエサワタロウガサワ","prefecture_code":3},{"zip_code":"0294206","prefecture":"岩手県","prefecture_kana":"イワテケン","city":"奥州市","city_kana":"オウシュウシ","town":"前沢日除松","town_kana":"マエサワヒヨケマツ","prefecture_code":3},{"zip_code":"0294206","prefecture":"岩手県","prefecture_kana":"イワテケン","city":"奥州市","city_kana":"オウシュウシ","town":"前沢簾森","town_kana":"マエサワミスモリ","prefecture_code":3},{"zip_code":"0294206","prefecture":"岩手県","prefecture_kana":"イワテケン","city":"奥州市","city_kana":"オウシュウシ","town":"前沢養ケ森","town_kana":"マエサワヨウガモリ","prefecture_code":3}],"4207":[{"zip_code":"0294207","prefecture":"岩手県","prefecture_kana":"イワテケン","city":"奥州市","city_kana":"オウシュウシ","town":"前沢赤面","town_kana":"マエサワアカツラ","prefecture_code":3},{"zip_code":"0294207","prefecture":"岩手県","prefecture_kana":"イワテケン","city":"奥州市","city_kana":"オウシュウシ","town":"前沢一本杉","town_kana":"マエサワイッポンスギ","prefecture_code":3},{"zip_code":"0294207","prefecture":"岩手県","prefecture_kana":"イワテケン","city":"奥州市","city_kana":"オウシュウシ","town":"前沢大桜","town_kana":"マエサワオオザクラ","prefecture_code":3},{"zip_code":"0294207","prefecture":"岩手県","prefecture_kana":"イワテケン","city":"奥州市","city_kana":"オウシュウシ","town":"前沢五十人町","town_kana":"マエサワゴジュウニンマチ","prefecture_code":3},{"zip_code":"0294207","prefecture":"岩手県","prefecture_kana":"イワテケン","city":"奥州市","city_kana":"オウシュウシ","town":"前沢下小路","town_kana":"マエサワシモコウジ","prefecture_code":3},{"zip_code":"0294207","prefecture":"岩手県","prefecture_kana":"イワテケン","city":"奥州市","city_kana":"オウシュウシ","town":"前沢平小路","town_kana":"マエサワタイラコウジ","prefecture_code":3},{"zip_code":"0294207","prefecture":"岩手県","prefecture_kana":"イワテケン","city":"奥州市","city_kana":"オウシュウシ","town":"前沢平前","town_kana":"マエサワタイラマエ","prefecture_code":3},{"zip_code":"0294207","prefecture":"岩手県","prefecture_kana":"イワテケン","city":"奥州市","city_kana":"オウシュウシ","town":"前沢塔ケ崎","town_kana":"マエサワトウガサキ","prefecture_code":3},{"zip_code":"0294207","prefecture":"岩手県","prefecture_kana":"イワテケン","city":"奥州市","city_kana":"オウシュウシ","town":"前沢泊ケ崎","town_kana":"マエサワトマリガサキ","prefecture_code":3},{"zip_code":"0294207","prefecture":"岩手県","prefecture_kana":"イワテケン","city":"奥州市","city_kana":"オウシュウシ","town":"前沢三日町","town_kana":"マエサワミッカマチ","prefecture_code":3},{"zip_code":"0294207","prefecture":"岩手県","prefecture_kana":"イワテケン","city":"奥州市","city_kana":"オウシュウシ","town":"前沢三日町浦","town_kana":"マエサワミッカマチウラ","prefecture_code":3},{"zip_code":"0294207","prefecture":"岩手県","prefecture_kana":"イワテケン","city":"奥州市","city_kana":"オウシュウシ","town":"前沢三日町新裏","town_kana":"マエサワミッカマチシンウラ","prefecture_code":3},{"zip_code":"0294207","prefecture":"岩手県","prefecture_kana":"イワテケン","city":"奥州市","city_kana":"オウシュウシ","town":"前沢屋敷","town_kana":"マエサワヤシキ","prefecture_code":3}],"4209":{"zip_code":"0294209","prefecture":"岩手県","prefecture_kana":"イワテケン","city":"奥州市","city_kana":"オウシュウシ","town":"前沢あすか通","town_kana":"マエサワアスカドオリ","prefecture_code":3},"4201":[{"zip_code":"0294201","prefecture":"岩手県","prefecture_kana":"イワテケン","city":"奥州市","city_kana":"オウシュウシ","town":"前沢阿部舘","town_kana":"マエサワアベタテ","prefecture_code":3},{"zip_code":"0294201","prefecture":"岩手県","prefecture_kana":"イワテケン","city":"奥州市","city_kana":"オウシュウシ","town":"前沢久田","town_kana":"マエサワキュウデン","prefecture_code":3},{"zip_code":"0294201","prefecture":"岩手県","prefecture_kana":"イワテケン","city":"奥州市","city_kana":"オウシュウシ","town":"前沢源氏ケ崎","town_kana":"マエサワゲンジガサキ","prefecture_code":3},{"zip_code":"0294201","prefecture":"岩手県","prefecture_kana":"イワテケン","city":"奥州市","city_kana":"オウシュウシ","town":"前沢古城","town_kana":"マエサワコジョウ","prefecture_code":3}],"4208":[{"zip_code":"0294208","prefecture":"岩手県","prefecture_kana":"イワテケン","city":"奥州市","city_kana":"オウシュウシ","town":"前沢粟ケ島","town_kana":"マエサワアワガシマ","prefecture_code":3},{"zip_code":"0294208","prefecture":"岩手県","prefecture_kana":"イワテケン","city":"奥州市","city_kana":"オウシュウシ","town":"前沢河ノ畑","town_kana":"マエサワカノハタ","prefecture_code":3},{"zip_code":"0294208","prefecture":"岩手県","prefecture_kana":"イワテケン","city":"奥州市","city_kana":"オウシュウシ","town":"前沢株樹","town_kana":"マエサワカブキ","prefecture_code":3},{"zip_code":"0294208","prefecture":"岩手県","prefecture_kana":"イワテケン","city":"奥州市","city_kana":"オウシュウシ","town":"前沢五合田","town_kana":"マエサワゴゴウタ","prefecture_code":3},{"zip_code":"0294208","prefecture":"岩手県","prefecture_kana":"イワテケン","city":"奥州市","city_kana":"オウシュウシ","town":"前沢新町","town_kana":"マエサワシンマチ","prefecture_code":3},{"zip_code":"0294208","prefecture":"岩手県","prefecture_kana":"イワテケン","city":"奥州市","city_kana":"オウシュウシ","town":"前沢新町裏","town_kana":"マエサワシンマチウラ","prefecture_code":3},{"zip_code":"0294208","prefecture":"岩手県","prefecture_kana":"イワテケン","city":"奥州市","city_kana":"オウシュウシ","town":"前沢大林寺下","town_kana":"マエサワダイリンジシタ","prefecture_code":3},{"zip_code":"0294208","prefecture":"岩手県","prefecture_kana":"イワテケン","city":"奥州市","city_kana":"オウシュウシ","town":"前沢竹沢","town_kana":"マエサワタケザワ","prefecture_code":3},{"zip_code":"0294208","prefecture":"岩手県","prefecture_kana":"イワテケン","city":"奥州市","city_kana":"オウシュウシ","town":"前沢立石","town_kana":"マエサワタテイシ","prefecture_code":3},{"zip_code":"0294208","prefecture":"岩手県","prefecture_kana":"イワテケン","city":"奥州市","city_kana":"オウシュウシ","town":"前沢田畠","town_kana":"マエサワタバタ","prefecture_code":3},{"zip_code":"0294208","prefecture":"岩手県","prefecture_kana":"イワテケン","city":"奥州市","city_kana":"オウシュウシ","town":"前沢中田","town_kana":"マエサワナカダ","prefecture_code":3},{"zip_code":"0294208","prefecture":"岩手県","prefecture_kana":"イワテケン","city":"奥州市","city_kana":"オウシュウシ","town":"前沢七日町","town_kana":"マエサワナノカマチ","prefecture_code":3},{"zip_code":"0294208","prefecture":"岩手県","prefecture_kana":"イワテケン","city":"奥州市","city_kana":"オウシュウシ","town":"前沢七日町裏","town_kana":"マエサワナノカマチウラ","prefecture_code":3},{"zip_code":"0294208","prefecture":"岩手県","prefecture_kana":"イワテケン","city":"奥州市","city_kana":"オウシュウシ","town":"前沢二十人町","town_kana":"マエサワニジュウニンマチ","prefecture_code":3},{"zip_code":"0294208","prefecture":"岩手県","prefecture_kana":"イワテケン","city":"奥州市","city_kana":"オウシュウシ","town":"前沢二十人町裏","town_kana":"マエサワニジュウニンマチウラ","prefecture_code":3},{"zip_code":"0294208","prefecture":"岩手県","prefecture_kana":"イワテケン","city":"奥州市","city_kana":"オウシュウシ","town":"前沢山下","town_kana":"マエサワヤマシタ","prefecture_code":3}],"4211":{"zip_code":"0294211","prefecture":"岩手県","prefecture_kana":"イワテケン","city":"奥州市","city_kana":"オウシュウシ","town":"前沢駅東","town_kana":"マエサワエキヒガシ","prefecture_code":3},"4203":[{"zip_code":"0294203","prefecture":"岩手県","prefecture_kana":"イワテケン","city":"奥州市","city_kana":"オウシュウシ","town":"前沢北久保","town_kana":"マエサワキタクボ","prefecture_code":3},{"zip_code":"0294203","prefecture":"岩手県","prefecture_kana":"イワテケン","city":"奥州市","city_kana":"オウシュウシ","town":"前沢狐堂","town_kana":"マエサワキツネドウ","prefecture_code":3},{"zip_code":"0294203","prefecture":"岩手県","prefecture_kana":"イワテケン","city":"奥州市","city_kana":"オウシュウシ","town":"前沢生母","town_kana":"マエサワセイボ","prefecture_code":3}],"4204":[{"zip_code":"0294204","prefecture":"岩手県","prefecture_kana":"イワテケン","city":"奥州市","city_kana":"オウシュウシ","town":"前沢下谷起","town_kana":"マエサワシタヤギ","prefecture_code":3},{"zip_code":"0294204","prefecture":"岩手県","prefecture_kana":"イワテケン","city":"奥州市","city_kana":"オウシュウシ","town":"前沢島","town_kana":"マエサワシマ","prefecture_code":3},{"zip_code":"0294204","prefecture":"岩手県","prefecture_kana":"イワテケン","city":"奥州市","city_kana":"オウシュウシ","town":"前沢宿","town_kana":"マエサワシュク","prefecture_code":3},{"zip_code":"0294204","prefecture":"岩手県","prefecture_kana":"イワテケン","city":"奥州市","city_kana":"オウシュウシ","town":"前沢高畑","town_kana":"マエサワタカハタケ","prefecture_code":3},{"zip_code":"0294204","prefecture":"岩手県","prefecture_kana":"イワテケン","city":"奥州市","city_kana":"オウシュウシ","town":"前沢田中","town_kana":"マエサワタナカ","prefecture_code":3},{"zip_code":"0294204","prefecture":"岩手県","prefecture_kana":"イワテケン","city":"奥州市","city_kana":"オウシュウシ","town":"前沢道場","town_kana":"マエサワドウバ","prefecture_code":3},{"zip_code":"0294204","prefecture":"岩手県","prefecture_kana":"イワテケン","city":"奥州市","city_kana":"オウシュウシ","town":"前沢鳥待小屋","town_kana":"マエサワトリマチゴヤ","prefecture_code":3},{"zip_code":"0294204","prefecture":"岩手県","prefecture_kana":"イワテケン","city":"奥州市","city_kana":"オウシュウシ","town":"前沢中久保","town_kana":"マエサワナカクボ","prefecture_code":3},{"zip_code":"0294204","prefecture":"岩手県","prefecture_kana":"イワテケン","city":"奥州市","city_kana":"オウシュウシ","town":"前沢長檀","town_kana":"マエサワナガダン","prefecture_code":3},{"zip_code":"0294204","prefecture":"岩手県","prefecture_kana":"イワテケン","city":"奥州市","city_kana":"オウシュウシ","town":"前沢中村","town_kana":"マエサワナカムラ","prefecture_code":3},{"zip_code":"0294204","prefecture":"岩手県","prefecture_kana":"イワテケン","city":"奥州市","city_kana":"オウシュウシ","town":"前沢古川","town_kana":"マエサワフルカワ","prefecture_code":3},{"zip_code":"0294204","prefecture":"岩手県","prefecture_kana":"イワテケン","city":"奥州市","city_kana":"オウシュウシ","town":"前沢南前沢","town_kana":"マエサワミナミマエサワ","prefecture_code":3},{"zip_code":"0294204","prefecture":"岩手県","prefecture_kana":"イワテケン","city":"奥州市","city_kana":"オウシュウシ","town":"前沢向田","town_kana":"マエサワムカイダ","prefecture_code":3},{"zip_code":"0294204","prefecture":"岩手県","prefecture_kana":"イワテケン","city":"奥州市","city_kana":"オウシュウシ","town":"前沢本杉","town_kana":"マエサワモトスギ","prefecture_code":3},{"zip_code":"0294204","prefecture":"岩手県","prefecture_kana":"イワテケン","city":"奥州市","city_kana":"オウシュウシ","town":"前沢谷地","town_kana":"マエサワヤチ","prefecture_code":3},{"zip_code":"0294204","prefecture":"岩手県","prefecture_kana":"イワテケン","city":"奥州市","city_kana":"オウシュウシ","town":"前沢八幡","town_kana":"マエサワヤワタ","prefecture_code":3},{"zip_code":"0294204","prefecture":"岩手県","prefecture_kana":"イワテケン","city":"奥州市","city_kana":"オウシュウシ","town":"前沢八幡前","town_kana":"マエサワヤワタマエ","prefecture_code":3}],"4202":{"zip_code":"0294202","prefecture":"岩手県","prefecture_kana":"イワテケン","city":"奥州市","city_kana":"オウシュウシ","town":"前沢白山","town_kana":"マエサワシラヤマ","prefecture_code":3},"5500":{"zip_code":"0295500","prefecture":"岩手県","prefecture_kana":"イワテケン","city":"和賀郡西和賀町","city_kana":"ワガグンニシワガマチ","town":"以下に掲載がない場合","town_kana":"イカニケイサイガナイバアイ","prefecture_code":3},"5503":[{"zip_code":"0295503","prefecture":"岩手県","prefecture_kana":"イワテケン","city":"和賀郡西和賀町","city_kana":"ワガグンニシワガマチ","town":"穴明２２地割、穴明２３地割","town_kana":"アナアケ22チワリ、アナアケ23チワリ","prefecture_code":3},{"zip_code":"0295503","prefecture":"岩手県","prefecture_kana":"イワテケン","city":"和賀郡西和賀町","city_kana":"ワガグンニシワガマチ","town":"清水ケ野１８地割","town_kana":"シミズガノ18チワリ","prefecture_code":3},{"zip_code":"0295503","prefecture":"岩手県","prefecture_kana":"イワテケン","city":"和賀郡西和賀町","city_kana":"ワガグンニシワガマチ","town":"間木野２４地割","town_kana":"マギノ24チワリ","prefecture_code":3},{"zip_code":"0295503","prefecture":"岩手県","prefecture_kana":"イワテケン","city":"和賀郡西和賀町","city_kana":"ワガグンニシワガマチ","town":"湯田１９地割〜湯田２１地割","town_kana":"ユダ19チワリ-ユダ21チワリ","prefecture_code":3}],"5511":{"zip_code":"0295511","prefecture":"岩手県","prefecture_kana":"イワテケン","city":"和賀郡西和賀町","city_kana":"ワガグンニシワガマチ","town":"上野々３９地割","town_kana":"ウエノノ39チワリ","prefecture_code":3},"5523":[{"zip_code":"0295523","prefecture":"岩手県","prefecture_kana":"イワテケン","city":"和賀郡西和賀町","city_kana":"ワガグンニシワガマチ","town":"越中畑６４地割〜越中畑６６地割","town_kana":"エッチュウハタ64チワリ-エッチュウハタ66チワリ","prefecture_code":3},{"zip_code":"0295523","prefecture":"岩手県","prefecture_kana":"イワテケン","city":"和賀郡西和賀町","city_kana":"ワガグンニシワガマチ","town":"桂子沢７５地割、桂子沢７６地割","town_kana":"カツラゴザワ75チワリ、カツラゴザワ76チワリ","prefecture_code":3},{"zip_code":"0295523","prefecture":"岩手県","prefecture_kana":"イワテケン","city":"和賀郡西和賀町","city_kana":"ワガグンニシワガマチ","town":"沢中７３地割、沢中７４地割","town_kana":"サワナカ73チワリ、サワナカ74チワリ","prefecture_code":3},{"zip_code":"0295523","prefecture":"岩手県","prefecture_kana":"イワテケン","city":"和賀郡西和賀町","city_kana":"ワガグンニシワガマチ","town":"白木野６７地割","town_kana":"シロキノ67チワリ","prefecture_code":3},{"zip_code":"0295523","prefecture":"岩手県","prefecture_kana":"イワテケン","city":"和賀郡西和賀町","city_kana":"ワガグンニシワガマチ","town":"細内６８地割、細内６９地割","town_kana":"ホソナイ68チワリ、ホソナイ69チワリ","prefecture_code":3},{"zip_code":"0295523","prefecture":"岩手県","prefecture_kana":"イワテケン","city":"和賀郡西和賀町","city_kana":"ワガグンニシワガマチ","town":"柳沢７０地割、柳沢７１地割","town_kana":"ヤナギザワ70チワリ、ヤナギザワ71チワリ","prefecture_code":3},{"zip_code":"0295523","prefecture":"岩手県","prefecture_kana":"イワテケン","city":"和賀郡西和賀町","city_kana":"ワガグンニシワガマチ","town":"芦ケ沢７２地割","town_kana":"ヨシガサワ72チワリ","prefecture_code":3}],"5507":{"zip_code":"0295507","prefecture":"岩手県","prefecture_kana":"イワテケン","city":"和賀郡西和賀町","city_kana":"ワガグンニシワガマチ","town":"大沓３６地割","town_kana":"オオクツ36チワリ","prefecture_code":3},"5521":[{"zip_code":"0295521","prefecture":"岩手県","prefecture_kana":"イワテケン","city":"和賀郡西和賀町","city_kana":"ワガグンニシワガマチ","town":"大渡５７地割","town_kana":"オオワタリ57チワリ","prefecture_code":3},{"zip_code":"0295521","prefecture":"岩手県","prefecture_kana":"イワテケン","city":"和賀郡西和賀町","city_kana":"ワガグンニシワガマチ","town":"小繋沢５４地割〜小繋沢５６地割","town_kana":"コツナギザワ54チワリ-コツナギザワ56チワリ","prefecture_code":3}],"5513":[{"zip_code":"0295513","prefecture":"岩手県","prefecture_kana":"イワテケン","city":"和賀郡西和賀町","city_kana":"ワガグンニシワガマチ","town":"甲子５１地割","town_kana":"カッチ51チワリ","prefecture_code":3},{"zip_code":"0295513","prefecture":"岩手県","prefecture_kana":"イワテケン","city":"和賀郡西和賀町","city_kana":"ワガグンニシワガマチ","town":"草井沢４７地割","town_kana":"クサイザワ47チワリ","prefecture_code":3},{"zip_code":"0295513","prefecture":"岩手県","prefecture_kana":"イワテケン","city":"和賀郡西和賀町","city_kana":"ワガグンニシワガマチ","town":"杉名畑４４地割（その他）","town_kana":"スギナハタ44チワリ(ソノタ)","prefecture_code":3},{"zip_code":"0295513","prefecture":"岩手県","prefecture_kana":"イワテケン","city":"和賀郡西和賀町","city_kana":"ワガグンニシワガマチ","town":"本内４６地割","town_kana":"ホンナイ46チワリ","prefecture_code":3},{"zip_code":"0295513","prefecture":"岩手県","prefecture_kana":"イワテケン","city":"和賀郡西和賀町","city_kana":"ワガグンニシワガマチ","town":"耳取４９地割","town_kana":"ミミドリ49チワリ","prefecture_code":3},{"zip_code":"0295513","prefecture":"岩手県","prefecture_kana":"イワテケン","city":"和賀郡西和賀町","city_kana":"ワガグンニシワガマチ","town":"本屋敷４８地割","town_kana":"モトヤシキ48チワリ","prefecture_code":3},{"zip_code":"0295513","prefecture":"岩手県","prefecture_kana":"イワテケン","city":"和賀郡西和賀町","city_kana":"ワガグンニシワガマチ","town":"鷲之巣５０地割","town_kana":"ワシノス50チワリ","prefecture_code":3}],"5502":[{"zip_code":"0295502","prefecture":"岩手県","prefecture_kana":"イワテケン","city":"和賀郡西和賀町","city_kana":"ワガグンニシワガマチ","town":"樺沢１６地割、樺沢１７地割","town_kana":"カバサワ16チワリ、カバサワ17チワリ","prefecture_code":3},{"zip_code":"0295502","prefecture":"岩手県","prefecture_kana":"イワテケン","city":"和賀郡西和賀町","city_kana":"ワガグンニシワガマチ","town":"下前７地割〜下前１４地割","town_kana":"シタマエ7チワリ-シタマエ14チワリ","prefecture_code":3},{"zip_code":"0295502","prefecture":"岩手県","prefecture_kana":"イワテケン","city":"和賀郡西和賀町","city_kana":"ワガグンニシワガマチ","town":"寅沢１５地割","town_kana":"トラサワ15チワリ","prefecture_code":3}],"5512":{"zip_code":"0295512","prefecture":"岩手県","prefecture_kana":"イワテケン","city":"和賀郡西和賀町","city_kana":"ワガグンニシワガマチ","town":"川尻４０地割、川尻４１地割","town_kana":"カワシリ40チワリ、カワシリ41チワリ","prefecture_code":3},"5501":[{"zip_code":"0295501","prefecture":"岩手県","prefecture_kana":"イワテケン","city":"和賀郡西和賀町","city_kana":"ワガグンニシワガマチ","town":"左草１地割〜左草６地割","town_kana":"サソウ1チワリ-サソウ6チワリ","prefecture_code":3},{"zip_code":"0295501","prefecture":"岩手県","prefecture_kana":"イワテケン","city":"和賀郡西和賀町","city_kana":"ワガグンニシワガマチ","town":"下左草７７地割〜下左草８０地割","town_kana":"シモサソウ77チワリ-シモサソウ80チワリ","prefecture_code":3}],"5616":{"zip_code":"0295616","prefecture":"岩手県","prefecture_kana":"イワテケン","city":"和賀郡西和賀町","city_kana":"ワガグンニシワガマチ","town":"沢内泉沢","town_kana":"サワウチイズミザワ","prefecture_code":3},"5614":{"zip_code":"0295614","prefecture":"岩手県","prefecture_kana":"イワテケン","city":"和賀郡西和賀町","city_kana":"ワガグンニシワガマチ","town":"沢内太田","town_kana":"サワウチオオタ","prefecture_code":3},"5612":{"zip_code":"0295612","prefecture":"岩手県","prefecture_kana":"イワテケン","city":"和賀郡西和賀町","city_kana":"ワガグンニシワガマチ","town":"沢内大野","town_kana":"サワウチオオノ","prefecture_code":3},"5703":{"zip_code":"0295703","prefecture":"岩手県","prefecture_kana":"イワテケン","city":"和賀郡西和賀町","city_kana":"ワガグンニシワガマチ","town":"沢内貝沢","town_kana":"サワウチカイザワ","prefecture_code":3},"5701":{"zip_code":"0295701","prefecture":"岩手県","prefecture_kana":"イワテケン","city":"和賀郡西和賀町","city_kana":"ワガグンニシワガマチ","town":"沢内川舟","town_kana":"サワウチカワフネ","prefecture_code":3},"5621":{"zip_code":"0295621","prefecture":"岩手県","prefecture_kana":"イワテケン","city":"和賀郡西和賀町","city_kana":"ワガグンニシワガマチ","town":"沢内鍵飯","town_kana":"サワウチケンパン","prefecture_code":3},"5615":{"zip_code":"0295615","prefecture":"岩手県","prefecture_kana":"イワテケン","city":"和賀郡西和賀町","city_kana":"ワガグンニシワガマチ","town":"沢内猿橋","town_kana":"サワウチサルハシ","prefecture_code":3},"5611":{"zip_code":"0295611","prefecture":"岩手県","prefecture_kana":"イワテケン","city":"和賀郡西和賀町","city_kana":"ワガグンニシワガマチ","town":"沢内新町","town_kana":"サワウチシンマチ","prefecture_code":3},"5617":{"zip_code":"0295617","prefecture":"岩手県","prefecture_kana":"イワテケン","city":"和賀郡西和賀町","city_kana":"ワガグンニシワガマチ","town":"沢内長瀬野","town_kana":"サワウチナガセノ","prefecture_code":3},"5619":{"zip_code":"0295619","prefecture":"岩手県","prefecture_kana":"イワテケン","city":"和賀郡西和賀町","city_kana":"ワガグンニシワガマチ","town":"沢内弁天","town_kana":"サワウチベンテン","prefecture_code":3},"5613":{"zip_code":"0295613","prefecture":"岩手県","prefecture_kana":"イワテケン","city":"和賀郡西和賀町","city_kana":"ワガグンニシワガマチ","town":"沢内前郷","town_kana":"サワウチマエゴウ","prefecture_code":3},"5618":{"zip_code":"0295618","prefecture":"岩手県","prefecture_kana":"イワテケン","city":"和賀郡西和賀町","city_kana":"ワガグンニシワガマチ","town":"沢内両沢","town_kana":"サワウチリョウザワ","prefecture_code":3},"5702":{"zip_code":"0295702","prefecture":"岩手県","prefecture_kana":"イワテケン","city":"和賀郡西和賀町","city_kana":"ワガグンニシワガマチ","town":"沢内若畑","town_kana":"サワウチワカハタ","prefecture_code":3},"5522":[{"zip_code":"0295522","prefecture":"岩手県","prefecture_kana":"イワテケン","city":"和賀郡西和賀町","city_kana":"ワガグンニシワガマチ","town":"巣郷６３地割","town_kana":"スゴウ63チワリ","prefecture_code":3},{"zip_code":"0295522","prefecture":"岩手県","prefecture_kana":"イワテケン","city":"和賀郡西和賀町","city_kana":"ワガグンニシワガマチ","town":"中村５８地割、中村５９地割","town_kana":"ナカムラ58チワリ、ナカムラ59チワリ","prefecture_code":3},{"zip_code":"0295522","prefecture":"岩手県","prefecture_kana":"イワテケン","city":"和賀郡西和賀町","city_kana":"ワガグンニシワガマチ","town":"野々宿６０地割〜野々宿６２地割","town_kana":"ノノシュク60チワリ-ノノシュク62チワリ","prefecture_code":3}],"5504":{"zip_code":"0295504","prefecture":"岩手県","prefecture_kana":"イワテケン","city":"和賀郡西和賀町","city_kana":"ワガグンニシワガマチ","town":"槻沢２５地割〜槻沢２８地割","town_kana":"ツキザワ25チワリ-ツキザワ28チワリ","prefecture_code":3},"5514":{"zip_code":"0295514","prefecture":"岩手県","prefecture_kana":"イワテケン","city":"和賀郡西和賀町","city_kana":"ワガグンニシワガマチ","town":"湯川５２地割、湯川５３地割","town_kana":"ユガワ52チワリ、ユガワ53チワリ","prefecture_code":3},"5506":{"zip_code":"0295506","prefecture":"岩手県","prefecture_kana":"イワテケン","city":"和賀郡西和賀町","city_kana":"ワガグンニシワガマチ","town":"湯之沢３１地割〜湯之沢３５地割","town_kana":"ユノサワ31チワリ-ユノサワ35チワリ","prefecture_code":3},"5505":{"zip_code":"0295505","prefecture":"岩手県","prefecture_kana":"イワテケン","city":"和賀郡西和賀町","city_kana":"ワガグンニシワガマチ","town":"湯本２９地割、湯本３０地割","town_kana":"ユモト29チワリ、ユモト30チワリ","prefecture_code":3},"4500":{"zip_code":"0294500","prefecture":"岩手県","prefecture_kana":"イワテケン","city":"胆沢郡金ケ崎町","city_kana":"イサワグンカネガサキチョウ","town":"以下に掲載がない場合","town_kana":"イカニケイサイガナイバアイ","prefecture_code":3},"4505":{"zip_code":"0294505","prefecture":"岩手県","prefecture_kana":"イワテケン","city":"胆沢郡金ケ崎町","city_kana":"イサワグンカネガサキチョウ","town":"永栄","town_kana":"ナガサカエ","prefecture_code":3},"4504":{"zip_code":"0294504","prefecture":"岩手県","prefecture_kana":"イワテケン","city":"胆沢郡金ケ崎町","city_kana":"イサワグンカネガサキチョウ","town":"永沢","town_kana":"ナガサワ","prefecture_code":3},"4503":{"zip_code":"0294503","prefecture":"岩手県","prefecture_kana":"イワテケン","city":"胆沢郡金ケ崎町","city_kana":"イサワグンカネガサキチョウ","town":"西根","town_kana":"ニシネ","prefecture_code":3},"4502":{"zip_code":"0294502","prefecture":"岩手県","prefecture_kana":"イワテケン","city":"胆沢郡金ケ崎町","city_kana":"イサワグンカネガサキチョウ","town":"三ケ尻","town_kana":"ミカジリ","prefecture_code":3},"4501":{"zip_code":"0294501","prefecture":"岩手県","prefecture_kana":"イワテケン","city":"胆沢郡金ケ崎町","city_kana":"イサワグンカネガサキチョウ","town":"六原","town_kana":"ロクハラ","prefecture_code":3},"4100":{"zip_code":"0294100","prefecture":"岩手県","prefecture_kana":"イワテケン","city":"西磐井郡平泉町","city_kana":"ニシイワイグンヒライズミチョウ","town":"以下に掲載がない場合","town_kana":"イカニケイサイガナイバアイ","prefecture_code":3},"4101":{"zip_code":"0294101","prefecture":"岩手県","prefecture_kana":"イワテケン","city":"西磐井郡平泉町","city_kana":"ニシイワイグンヒライズミチョウ","town":"長島","town_kana":"ナガシマ","prefecture_code":3},"4102":{"zip_code":"0294102","prefecture":"岩手県","prefecture_kana":"イワテケン","city":"西磐井郡平泉町","city_kana":"ニシイワイグンヒライズミチョウ","town":"平泉","town_kana":"ヒライズミ","prefecture_code":3},"2300":{"zip_code":"0292300","prefecture":"岩手県","prefecture_kana":"イワテケン","city":"気仙郡住田町","city_kana":"ケセングンスミタチョウ","town":"以下に掲載がない場合","town_kana":"イカニケイサイガナイバアイ","prefecture_code":3},"2501":{"zip_code":"0292501","prefecture":"岩手県","prefecture_kana":"イワテケン","city":"気仙郡住田町","city_kana":"ケセングンスミタチョウ","town":"上有住","town_kana":"カミアリス","prefecture_code":3},"2502":{"zip_code":"0292502","prefecture":"岩手県","prefecture_kana":"イワテケン","city":"気仙郡住田町","city_kana":"ケセングンスミタチョウ","town":"下有住","town_kana":"シモアリス","prefecture_code":3},"2311":{"zip_code":"0292311","prefecture":"岩手県","prefecture_kana":"イワテケン","city":"気仙郡住田町","city_kana":"ケセングンスミタチョウ","town":"世田米","town_kana":"セタマイ","prefecture_code":3},"0192":{"zip_code":"0290192","prefecture":"岩手県","city":"一関市","town":"狐禅寺","prefecture_code":3},"2292":{"zip_code":"0292292","prefecture":"岩手県","city":"陸前高田市","town":"高田町","prefecture_code":3},"2293":{"zip_code":"0292293","prefecture":"岩手県","city":"陸前高田市","town":"高田町","prefecture_code":3},"4292":{"zip_code":"0294292","prefecture":"岩手県","city":"奥州市","town":"前沢","prefecture_code":3},"4293":{"zip_code":"0294293","prefecture":"岩手県","city":"奥州市","town":"前沢向田","prefecture_code":3},"5692":{"zip_code":"0295692","prefecture":"岩手県","city":"和賀郡西和賀町","town":"沢内字太田","prefecture_code":3},"4592":{"zip_code":"0294592","prefecture":"岩手県","city":"胆沢郡金ケ崎町","town":"西根","prefecture_code":3},"4593":{"zip_code":"0294593","prefecture":"岩手県","city":"胆沢郡金ケ崎町","town":"西根","prefecture_code":3},"4194":{"zip_code":"0294194","prefecture":"岩手県","city":"西磐井郡平泉町","town":"平泉","prefecture_code":3},"4195":{"zip_code":"0294195","prefecture":"岩手県","city":"西磐井郡平泉町","town":"平泉","prefecture_code":3},"4192":{"zip_code":"0294192","prefecture":"岩手県","city":"西磐井郡平泉町","town":"平泉","prefecture_code":3},"2396":{"zip_code":"0292396","prefecture":"岩手県","city":"気仙郡住田町","town":"世田米","prefecture_code":3}}